"placeCode","placeName","stateCode","lat","lng","coverImage"
"ABBOTT-MOUNT","Abbott Mount, Uttarakhand","UTTARAKHAND",29.4333333,80.0833333,"https://www.holidify.com/images/bgImages/ABBOTT-MOUNT.jpg"
"ADILABAD","Adilabad, Andhra Pradesh","TELANGANA",19.7638624,78.7762105,"https://www.holidify.com/images/bgImages/ADILABAD.jpg"
"AGARTALA","Agartala, Tripura","TRIPURA",23.831457,91.2867777,"https://www.holidify.com/images/bgImages/AGARTALA.jpg"
"AGRA","Agra, Uttar Pradesh","UTTAR-PRADESH",27.1766701,78.0080745,"https://www.holidify.com/images/bgImages/AGRA.jpg"
"AHMEDABAD","Ahmedabad, Gujarat","GUJARAT",23.0395677,72.5660045,"https://www.holidify.com/images/bgImages/AHMEDABAD.jpg"
"AHMEDNAGAR","Ahmednagar","MAHARASHTRA-GOA",19.0952075,74.7495916,"https://www.holidify.com/images/bgImages/AHMEDNAGAR.jpg"
"AIHOLE","Aihole, Karnataka","KARNATAKA",16.019844,75.88099,"https://www.holidify.com/images/bgImages/AIHOLE.jpg"
"AIZAWL","Aizawl, Mizoram","MIZORAM",23.727107,92.7176389,"https://www.holidify.com/images/bgImages/AIZAWL.jpg"
"AJANTA-AND-ELLORA-CAVES","Ajanta and Ellora Caves, Maharashtra","MAHARASHTRA-GOA",20.0169693,75.1832364,"https://www.holidify.com/images/bgImages/AJANTA-AND-ELLORA-CAVES.jpg"
"AJMER","Ajmer, Rajasthan","RAJASTHAN",26.45,74.64,"https://www.holidify.com/images/bgImages/AJMER.jpg"
"ALIBAG","Alibag, Maharashtra","MAHARASHTRA-GOA",18.655491,72.86792,"https://www.holidify.com/images/bgImages/ALIBAG.jpg"
"ALIGARH","Aligarh","UTTAR-PRADESH",27.8974,78.088,"https://www.holidify.com/images/bgImages/ALIGARH.jpg"
"ALLAHABAD","Allahabad, Uttar Pradesh","UTTAR-PRADESH",25.4358011,81.846311,"https://www.holidify.com/images/bgImages/ALLAHABAD.jpg"
"ALLEPPEY","Alleppey, Kerala","KERALA",9.4465113,76.4382255,"https://www.holidify.com/images/bgImages/ALLEPPEY.jpg"
"ALMORA","Almora, Uttarakhand","UTTARAKHAND",29.59836,79.6615118,"https://www.holidify.com/images/bgImages/ALMORA.jpg"
"ALONG","Along, Arunachal Pradesh","ARUNACHAL-PRADESH",28.170351,94.80194,"https://www.holidify.com/images/bgImages/ALONG.jpg"
"ALWAR","Alwar, Rajasthan","RAJASTHAN",27.5609324,76.6250168,"https://www.holidify.com/images/bgImages/ALWAR.jpg"
"AMARAVATHI","Amaravathi, Andhra Pradesh","ANDHRA-PRADESH",16.5728,80.3575,"https://www.holidify.com/images/bgImages/AMARAVATHI.jpg"
"AMARKANTAK","Amarkantak, Madhya Pradesh","MADHYA-PRADESH",22.6822292,81.7532219,"https://www.holidify.com/images/bgImages/AMARKANTAK.jpg"
"AMARNATH","Amarnath, Jammu & Kashmir","JAMMU-AND-KASHMIR",34.216667,75.5,"https://www.holidify.com/images/bgImages/AMARNATH.jpg"
"AMBOLI","Amboli, Maharashtra","MAHARASHTRA-GOA",15.9625,73.997778,"https://www.holidify.com/images/bgImages/AMBOLI.jpg"
"AMRAVATI","Amravati","MAHARASHTRA-GOA",20.92972,77.758133,"https://www.holidify.com/images/bgImages/AMRAVATI.jpg"
"AMRITSAR","Amritsar, Punjab","PUNJAB",31.6339793,74.8722642,"https://www.holidify.com/images/bgImages/AMRITSAR.jpg"
"ANAND","Anand, Gujarat","GUJARAT",22.556,72.951,"https://www.holidify.com/images/bgImages/ANAND.jpg"
"ANANDPUR-SAHIB","Anandpur Sahib","PUNJAB",31.2344,76.5055,"https://www.holidify.com/images/bgImages/ANANDPUR-SAHIB.jpg"
"ANANTAPUR","Anantapur, Andhra Pradesh","ANDHRA-PRADESH",14.6818877,77.6005911,"https://www.holidify.com/images/bgImages/ANANTAPUR.jpg"
"ANANTHAGIRI-HILLS","Ananthagiri Hills, Andhra Pradesh","ANDHRA-PRADESH",18.1968728,82.9978626,"https://www.holidify.com/images/bgImages/ANANTHAGIRI-HILLS.jpg"
"ANANTNAG","Anantnag, Jammu & Kashmir","JAMMU-AND-KASHMIR",33.7311255,75.1487007,"https://www.holidify.com/images/bgImages/ANANTNAG.jpg"
"ANDAMAN-NICOBAR-ISLANDS","Andaman &amp; Nicobar Islands","UNION-TERRITORY",11.7400867,92.6586401,"https://www.holidify.com/images/bgImages/ANDAMAN-NICOBAR-ISLANDS.jpg"
"ANINI","Anini, Arunachal Pradesh","ARUNACHAL-PRADESH",28.797491,95.8995389,"https://www.holidify.com/images/bgImages/ANINI.jpg"
"ANJAW","Anjaw, Arunachal Pradesh","ARUNACHAL-PRADESH",27.925,96.3481,"https://www.holidify.com/images/bgImages/ANJAW.jpg"
"ANNAVARAM","Annavaram, Andhra Pradesh","ANDHRA-PRADESH",17.281989,82.405525,"https://www.holidify.com/images/bgImages/ANNAVARAM.jpg"
"ANTHARGANGE","Anthargange, Karnataka","KARNATAKA",13.142425,78.100561,"https://www.holidify.com/images/bgImages/ANTHARGANGE.jpg"
"ARITAR","Aritar, Sikkim","SIKKIM",27.1880556,88.6747222,"https://www.holidify.com/images/bgImages/ARITAR.jpg"
"ARKI","Arki, Himachal Pradesh","HIMACHAL-PRADESH",31.15,76.9667,"https://www.holidify.com/images/bgImages/ARKI.jpg"
"ASANSOL","Asansol","WEST-BENGAL",23.693029,86.95311,"https://www.holidify.com/images/bgImages/ASANSOL.jpg"
"AULI","Auli, Uttarakhand","UTTARAKHAND",30.5288889,79.5702778,"https://www.holidify.com/images/bgImages/AULI.jpg"
"AURANGABAD","Aurangabad, Maharashtra","MAHARASHTRA-GOA",19.8761653,75.3433139,"https://www.holidify.com/images/bgImages/AURANGABAD.jpg"
"AUROVILLE","Auroville, Pondicherry","TAMIL-NADU",12.006944,79.810556,"https://www.holidify.com/images/bgImages/AUROVILLE.jpg"
"AYODHYA","Ayodhya, Uttar Pradesh","UTTAR-PRADESH",26.79644,82.198639,"https://www.holidify.com/images/bgImages/AYODHYA.jpg"
"BADAMI","Badami, Karnataka","KARNATAKA",15.91494,75.676811,"https://www.holidify.com/images/bgImages/BADAMI.jpg"
"BADRINATH","Badrinath, Uttarakhand","UTTARAKHAND",30.7433085,79.4937634,"https://www.holidify.com/images/bgImages/BADRINATH.jpg"
"BAGDOGRA","Bagdogra","WEST-BENGAL",26.6983,88.3244,"https://www.holidify.com/images/bgImages/BAGDOGRA.jpg"
"BAGESHWAR","Bageshwar, Uttarakhand","UTTARAKHAND",29.8394753,79.7764337,"https://www.holidify.com/images/bgImages/BAGESHWAR.jpg"
"BAGHMARA","Baghmara, Meghalaya","MEGHALAYA",25.193491,90.634631,"https://www.holidify.com/images/bgImages/BAGHMARA.jpg"
"BAKKHALI","Bakkhali, West Bengal","WEST-BENGAL",21.563267,88.259439,"https://www.holidify.com/images/bgImages/BAKKHALI.jpg"
"BALTAL","Baltal, Jammu & Kashmir","JAMMU-AND-KASHMIR",34.2582672,75.415535,"https://www.holidify.com/images/bgImages/BALTAL.jpg"
"BANDHAVGARH-NATIONAL-PARK","Bandhavgarh National Park, Madhya Pradesh","MADHYA-PRADESH",23.6831275,81.0354406,"https://www.holidify.com/images/bgImages/BANDHAVGARH-NATIONAL-PARK.jpg"
"BANDIPUR-NATIONAL-PARK","Bandipur National Park, Karnataka","KARNATAKA",11.667945,76.631913,"https://www.holidify.com/images/bgImages/BANDIPUR-NATIONAL-PARK.jpg"
"BANGALORE","Bangalore, Karnataka","KARNATAKA",12.9715987,77.5945627,"https://www.holidify.com/images/bgImages/BANGALORE.jpg"
"BANKURA","Bankura, West Bengal","WEST-BENGAL",23.2371632,87.0652217,"https://www.holidify.com/images/bgImages/BANKURA.jpg"
"BARDHAMAN","Bardhaman, West Bengal","WEST-BENGAL",23.2324214,87.8614793,"https://www.holidify.com/images/bgImages/BARDHAMAN.jpg"
"BARIPADA","Baripada, Odisha","ODISHA",21.94,86.72,"https://www.holidify.com/images/bgImages/BARIPADA.jpg"
"BARPETA","Barpeta, Assam","ASSAM",26.3155966,90.9964085,"https://www.holidify.com/images/bgImages/BARPETA.jpg"
"BARSANA","Barsana","UTTAR-PRADESH",27.64909,77.37902,"https://www.holidify.com/images/bgImages/BARSANA.jpg"
"BEKAL","Bekal, Kerala","KERALA",12.418774,75.024043,"https://www.holidify.com/images/bgImages/BEKAL.jpg"
"BELGAUM","Belgaum","KARNATAKA",15.8496953,74.4976741,"https://www.holidify.com/images/bgImages/BELGAUM.jpg"
"BELLIKKAL","Bellikkal, Tamil Nadu","TAMIL-NADU",11.48805,76.702863,"https://www.holidify.com/images/bgImages/BELLIKKAL.jpg"
"BERHAMPUR","Berhampur, Odisha","ODISHA",19.3149618,84.7940911,"https://www.holidify.com/images/bgImages/BERHAMPUR.jpg"
"BHADERWAH","Bhaderwah","JAMMU-AND-KASHMIR",32.979,75.7159,"https://www.holidify.com/images/bgImages/BHADERWAH.jpg"
"BHADRACHALAM","Bhadrachalam, Andhra Pradesh","TELANGANA",17.6687912,80.8935925,"https://www.holidify.com/images/bgImages/BHADRACHALAM.jpg"
"BHAGALPUR","Bhagalpur","BIHAR",25.3478004,86.9824288,"https://www.holidify.com/images/bgImages/BHAGALPUR.jpg"
"BHALUKPONG","Bhalukpong, Arunachal Pradesh","ARUNACHAL-PRADESH",27.0105311,92.6462262,"https://www.holidify.com/images/bgImages/BHALUKPONG.jpg"
"BHAMRAGAD","Bhamragarh Wildlife Sanctuary, Maharashtra","MAHARASHTRA-GOA",19.4148142,80.5896685,"https://www.holidify.com/images/bgImages/BHAMRAGAD.jpg"
"BHANDARDARA","Bhandardara, Maharashtra","MAHARASHTRA-GOA",19.5375291,73.7694815,"https://www.holidify.com/images/bgImages/BHANDARDARA.jpg"
"BHARATPUR","Bharatpur, Rajasthan","RAJASTHAN",27.215599,77.49015,"https://www.holidify.com/images/bgImages/BHARATPUR.jpg"
"BHATINDA","Bhatinda, Punjab","PUNJAB",30.210994,74.9454745,"https://www.holidify.com/images/bgImages/BHATINDA.jpg"
"BHAVNAGAR","Bhavnagar, Gujarat","GUJARAT",21.7644725,72.1519304,"https://www.holidify.com/images/bgImages/BHAVNAGAR.jpg"
"BHEDAGHAT","Bhedaghat, Madhya Pradesh","MADHYA-PRADESH",23.1246095,79.8181564,"https://www.holidify.com/images/bgImages/BHEDAGHAT.jpg"
"BHEEMESHWARI","Bheemeshwari, Karnataka","KARNATAKA",12.3112108,77.2789467,"https://www.holidify.com/images/bgImages/BHEEMESHWARI.jpg"
"BHILAI","Bhilai, Chattisgarh","CHATTISGARH",21.21,81.38,"https://www.holidify.com/images/bgImages/BHILAI.jpg"
"BHIMASHANKAR","Bhimashankar, Maharashtra","MAHARASHTRA-GOA",19.0719691,73.5356936,"https://www.holidify.com/images/bgImages/BHIMASHANKAR.jpg"
"BHIMBETKA","Bhimbetka, Madhya Pradesh","MADHYA-PRADESH",22.9395461,77.6124331,"https://www.holidify.com/images/bgImages/BHIMBETKA.jpg"
"BHIMTAL","Bhimtal, Uttarakhand","UTTARAKHAND",29.3518229,79.5519144,"https://www.holidify.com/images/bgImages/BHIMTAL.jpg"
"BHOPAL","Bhopal, Madhya Pradesh","MADHYA-PRADESH",23.2599333,77.412615,"https://www.holidify.com/images/bgImages/BHOPAL.jpg"
"BHOWALI","Bhowali, Uttarakhand","UTTARAKHAND",29.38,79.52,"https://www.holidify.com/images/bgImages/BHOWALI.jpg"
"BHUBANESWAR","Bhubaneswar, Orissa","ODISHA",20.2960587,85.8245398,"https://www.holidify.com/images/bgImages/BHUBANESWAR.jpg"
"BHUJ","Bhuj, Gujarat","GUJARAT",23.2419997,69.6669324,"https://www.holidify.com/images/bgImages/BHUJ.jpg"
"BHUNTAR","Bhuntar, Himachal Pradesh","HIMACHAL-PRADESH",31.8848538,77.1513924,"https://www.holidify.com/images/bgImages/BHUNTAR.jpg"
"BIDAR","Bidar, Karnataka","KARNATAKA",17.92,77.5197,"https://www.holidify.com/images/bgImages/BIDAR.jpg"
"BIJAPUR","Bijapur, Karnataka","KARNATAKA",16.82402,75.71534,"https://www.holidify.com/images/bgImages/BIJAPUR.jpg"
"BIKANER","Bikaner, Rajasthan","RAJASTHAN",28.01989,73.317551,"https://www.holidify.com/images/bgImages/BIKANER.jpg"
"BILASPUR","Bilaspur (HP), Himachal Pradesh","HIMACHAL-PRADESH",31.3454488,76.7596221,"https://www.holidify.com/images/bgImages/BILASPUR.jpg"
"BINSAR","Binsar, Uttarakhand","UTTARAKHAND",29.7047157,79.7189541,"https://www.holidify.com/images/bgImages/BINSAR.jpg"
"BIR","Bir Billing, Himachal Pradesh","HIMACHAL-PRADESH",32.0363889,76.7138889,"https://www.holidify.com/images/bgImages/BIR.jpg"
"BISHNUPUR","Bishnupur, West Bengal","WEST-BENGAL",23.079729,87.328537,"https://www.holidify.com/images/bgImages/BISHNUPUR.jpg"
"BODH-GAYA","Bodh Gaya, Bihar","BIHAR",24.695102,84.991275,"https://www.holidify.com/images/bgImages/BODH-GAYA.jpg"
"BOKARO-STEEL-CITY","Bokaro Steel City, Jharkhand","JHARKHAND",23.67,86.15,"https://www.holidify.com/images/bgImages/BOKARO-STEEL-CITY.jpg"
"BOMDILA","Bomdila, Arunachal Pradesh","ARUNACHAL-PRADESH",27.260639,92.420227,"https://www.holidify.com/images/bgImages/BOMDILA.jpg"
"BONGAIGAON","Bongaigaon, Assam","ASSAM",26.48,90.56,"https://www.holidify.com/images/bgImages/BONGAIGAON.jpg"
"BR-HILLS","BR Hills, Karnataka","KARNATAKA",11.9956324,77.142764,"https://www.holidify.com/images/bgImages/BR-HILLS.jpg"
"BUNDI","Bundi, Rajasthan","RAJASTHAN",25.4305144,75.6499025,"https://www.holidify.com/images/bgImages/BUNDI.jpg"
"BURHANPUR","Burhanpur, Madhya Pradesh","MADHYA-PRADESH",21.3193875,76.2224273,"https://www.holidify.com/images/bgImages/BURHANPUR.jpg"
"CHAIL","Chail, Himachal Pradesh","HIMACHAL-PRADESH",30.9697222,77.1975,"https://www.holidify.com/images/bgImages/CHAIL.jpg"
"CHAKRATA","Chakrata, Uttarakhand","UTTARAKHAND",30.7016208,77.8695996,"https://www.holidify.com/images/bgImages/CHAKRATA.jpg"
"CHAMBA","Chamba, Himachal Pradesh","HIMACHAL-PRADESH",32.5533633,76.1258083,"https://www.holidify.com/images/bgImages/CHAMBA.jpg"
"CHAMBA-UTTARAKHAND","Chamba (Uttarakhand)","UTTARAKHAND",30.3454803,78.394656,"https://www.holidify.com/images/bgImages/CHAMBA-UTTARAKHAND.jpg"
"CHAMOLI","Chamoli, Uttarakhand","UTTARAKHAND",30.4041045,79.3317691,"https://www.holidify.com/images/bgImages/CHAMOLI.jpg"
"CHAMPANER-PAVAGADH","Champaner-Pavagadh, Gujarat","GUJARAT",22.4846248,73.5324097,"https://www.holidify.com/images/bgImages/CHAMPANER-PAVAGADH.jpg"
"CHAMPAWAT","Champawat, Uttarakhand","UTTARAKHAND",29.3360974,80.0910275,"https://www.holidify.com/images/bgImages/CHAMPAWAT.jpg"
"CHAMPHAI","Champhai, Mizoram","MIZORAM",23.4565708,93.3281929,"https://www.holidify.com/images/bgImages/CHAMPHAI.jpg"
"CHANDANNAGAR","Chandannagar, West Bengal","WEST-BENGAL",22.8647723,88.36326,"https://www.holidify.com/images/bgImages/CHANDANNAGAR.jpg"
"CHANDEL","Chandel, Manipur","MANIPUR",24.328989,93.986769,"https://www.holidify.com/images/bgImages/CHANDEL.jpg"
"CHANDIGARH","Chandigarh, Punjab","UNION-TERRITORY",30.7333148,76.7794179,"https://www.holidify.com/images/bgImages/CHANDIGARH.jpg"
"CHANDIPUR","Chandipur, Odisha","ODISHA",21.4398608,87.0149438,"https://www.holidify.com/images/bgImages/CHANDIPUR.jpg"
"CHANGLANG","Changlang, Arunachal Pradesh","ARUNACHAL-PRADESH",27.1460636,95.7482047,"https://www.holidify.com/images/bgImages/CHANGLANG.jpg"
"CHANNAPATNA","Channapatna","KARNATAKA",12.6593,77.2039,"https://www.holidify.com/images/bgImages/CHANNAPATNA.jpg"
"CHAUKORI","Chaukori, Uttarakhand","UTTARAKHAND",29.8384526,80.0332325,"https://www.holidify.com/images/bgImages/CHAUKORI.jpg"
"CHENNAI","Chennai, Tamil Nadu","TAMIL-NADU",13.060422,80.249583,"https://www.holidify.com/images/bgImages/CHENNAI.jpg"
"CHERRAPUNJEE","Cherrapunji, Meghalaya","MEGHALAYA",25.3,91.7,"https://www.holidify.com/images/bgImages/CHERRAPUNJEE.jpg"
"CHETTINAD","Chettinad, Tamil Nadu","TAMIL-NADU",10.7610118,79.8451473,"https://www.holidify.com/images/bgImages/CHETTINAD.jpg"
"CHIDAMBRAM","Chidambram, Tamil Nadu","TAMIL-NADU",11.3981936,79.6953594,"https://www.holidify.com/images/bgImages/CHIDAMBRAM.jpg"
"CHIKBALLAPUR","Chikballapur, Karnataka","KARNATAKA",13.5228647,77.8367282,"https://www.holidify.com/images/bgImages/CHIKBALLAPUR.jpg"
"CHIKHALDARA","Chikhaldara, Maharashtra","MAHARASHTRA-GOA",21.4030119,77.3268121,"https://www.holidify.com/images/bgImages/CHIKHALDARA.jpg"
"CHIKMAGALUR","Chikmagalur, Karnataka","KARNATAKA",13.311821,75.770385,"https://www.holidify.com/images/bgImages/CHIKMAGALUR.jpg"
"CHIPLUN","Chiplun, Maharashtra","MAHARASHTRA-GOA",17.53,73.52,"https://www.holidify.com/images/bgImages/CHIPLUN.jpg"
"CHITRAKOOT","Chitrakoot, Uttar Pradesh","UTTAR-PRADESH",25.1788154,80.8654534,"https://www.holidify.com/images/bgImages/CHITRAKOOT.jpg"
"CHITTOOR","Chittoor, Andhra Pradesh","ANDHRA-PRADESH",13.217176,79.1003289,"https://www.holidify.com/images/bgImages/CHITTOOR.jpg"
"CHITTORGARH","Chittorgarh, Rajasthan","RAJASTHAN",24.8887435,74.6269216,"https://www.holidify.com/images/bgImages/CHITTORGARH.jpg"
"CHOPTA","Chopta, Uttarakhand","UTTARAKHAND",30.3513616,79.04194,"https://www.holidify.com/images/bgImages/CHOPTA.jpg"
"CHURU","Churu, Rajasthan","RAJASTHAN",28.3,74.95,"https://www.holidify.com/images/bgImages/CHURU.jpg"
"COIMBATORE","Coimbatore, Tamil Nadu","TAMIL-NADU",11.0168445,76.9558321,"https://www.holidify.com/images/bgImages/COIMBATORE.jpg"
"COOCH-BEHAR","Cooch Behar, West Bengal","WEST-BENGAL",26.32419,89.45103,"https://www.holidify.com/images/bgImages/COOCH-BEHAR.jpg"
"COONOOR","Coonoor, Tamil Nadu","TAMIL-NADU",11.3530022,76.7959095,"https://www.holidify.com/images/bgImages/COONOOR.jpg"
"COORG","Coorg, Karnataka","KARNATAKA",12.4244205,75.7381856,"https://www.holidify.com/images/bgImages/COORG.jpg"
"CORBETT-NATIONAL-PARK","Jim Corbett National Park, Uttarakhand","UTTARAKHAND",29.533333,78.935278,"https://www.holidify.com/images/bgImages/CORBETT-NATIONAL-PARK.jpg"
"CUTTACK","Cuttack, Orissa","ODISHA",20.462521,85.8829895,"https://www.holidify.com/images/bgImages/CUTTACK.jpg"
"DACHIGAM-NATIONAL-PARK","Dachigam National Park, Jammu & Kashmir","JAMMU-AND-KASHMIR",34.1371835,75.0377502,"https://www.holidify.com/images/bgImages/DACHIGAM-NATIONAL-PARK.jpg"
"DAHANU","Dahanu","MAHARASHTRA-GOA",19.95488,72.74774,"https://www.holidify.com/images/bgImages/DAHANU.jpg"
"DALHOUSIE","Dalhousie, Himachal Pradesh","HIMACHAL-PRADESH",32.5341812,75.9797052,"https://www.holidify.com/images/bgImages/DALHOUSIE.jpg"
"DAMAN","Daman, Daman and Diu","UNION-TERRITORY",20.416567,72.833416,"https://www.holidify.com/images/bgImages/DAMAN.jpg"
"DANDELI","Dandeli, Karnataka","KARNATAKA",15.261414,74.613136,"https://www.holidify.com/images/bgImages/DANDELI.jpg"
"DANTA-AMBAJI","Danta Ambaji, Gujarat","GUJARAT",23.9445109,72.6737887,"https://www.holidify.com/images/bgImages/DANTA-AMBAJI.jpg"
"DANTEWADA","Dantewada, Chattisgarh","CHATTISGARH",18.9,81.35,"https://www.holidify.com/images/bgImages/DANTEWADA.jpg"
"DAPOLI","Dapoli, Maharashtra","MAHARASHTRA-GOA",17.758889,73.185556,"https://www.holidify.com/images/bgImages/DAPOLI.jpg"
"DAPORIJO","Daporijo, Arunachal Pradesh","ARUNACHAL-PRADESH",27.9862879,94.2205209,"https://www.holidify.com/images/bgImages/DAPORIJO.jpg"
"DARANG","Darang, Assam","ASSAM",26.4522876,92.027319,"https://www.holidify.com/images/bgImages/DARANG.jpg"
"DARJEELING","Darjeeling, West Bengal","WEST-BENGAL",27.0360066,88.2626751,"https://www.holidify.com/images/bgImages/DARJEELING.jpg"
"DAVANGERE","Davangere, Karnataka","KARNATAKA",14.4663438,75.9238397,"https://www.holidify.com/images/bgImages/DAVANGERE.jpg"
"DEEG","Deeg, Rajasthan","RAJASTHAN",27.4723994,77.3249713,"https://www.holidify.com/images/bgImages/DEEG.jpg"
"DEHRADUN","Dehradun, Uttarakhand","UTTARAKHAND",30.3164945,78.0321918,"https://www.holidify.com/images/bgImages/DEHRADUN.jpg"
"DELHI","Delhi","NCR",28.6666667,77.2166667,"https://www.holidify.com/images/bgImages/DELHI.jpg"
"DEOGHAR","Deoghar, Jharkhand","JHARKHAND",24.4833,86.7,"https://www.holidify.com/images/bgImages/DEOGHAR.jpg"
"DEVBAGH","Devbagh, Karnataka","KARNATAKA",14.8464269,74.1137046,"https://www.holidify.com/images/bgImages/DEVBAGH.jpg"
"DEVIKULAM","Devikulam, Kerala","KERALA",10.024423,77.146833,"https://www.holidify.com/images/bgImages/DEVIKULAM.jpg"
"DEVPRAYAG","Devprayag, Uttarakhand","UTTARAKHAND",30.1459471,78.5992925,"https://www.holidify.com/images/bgImages/DEVPRAYAG.jpg"
"DHAMTARI","Dhamtari, Chattisgarh","CHATTISGARH",20.8963533,81.6004211,"https://www.holidify.com/images/bgImages/DHAMTARI.jpg"
"DHANAULTI","Dhanaulti, Uttarakhand","UTTARAKHAND",30.426677,78.2376466,"https://www.holidify.com/images/bgImages/DHANAULTI.jpg"
"DHANBAD","Dhanbad","JHARKHAND",23.7956531,86.4303859,"https://www.holidify.com/images/bgImages/DHANBAD.jpg"
"DHANUSHKODI","Dhanushkodi, Tamil Nadu","TAMIL-NADU",9.232767,79.3362295,"https://www.holidify.com/images/bgImages/DHANUSHKODI.jpg"
"DHARAMSALA","Dharamshala, Himachal Pradesh","HIMACHAL-PRADESH",32.2196772,76.3209345,"https://www.holidify.com/images/bgImages/DHARAMSALA.jpg"
"DHARCHULA","Dharchula, Uttarakhand","UTTARAKHAND",29.8473422,80.5369058,"https://www.holidify.com/images/bgImages/DHARCHULA.jpg"
"DHARMASTHALA","Dharmasthala, Karnataka","KARNATAKA",12.94685,75.38132,"https://www.holidify.com/images/bgImages/DHARMASTHALA.jpg"
"DHAULI","Dhauli, Odisha","ODISHA",20.1881589,85.8447846,"https://www.holidify.com/images/bgImages/DHAULI.jpg"
"DHEMAJI","Dhemaji, Assam","ASSAM",27.4811106,94.5572847,"https://www.holidify.com/images/bgImages/DHEMAJI.jpg"
"DHOLAVIRA","Dholavira, Gujarat","GUJARAT",23.8861,70.2167,"https://www.holidify.com/images/bgImages/DHOLAVIRA.jpg"
"DIBRU-SAIKHOWA-NATIONAL-PARK","Dibru Saikhowa National Park, Assam","ASSAM",27.6690334,95.3625516,"https://www.holidify.com/images/bgImages/DIBRU-SAIKHOWA-NATIONAL-PARK.jpg"
"DIBRUGARH","Dibrugarh, Assam","ASSAM",27.4728327,94.9119621,"https://www.holidify.com/images/bgImages/DIBRUGARH.jpg"
"DIGHA","Digha, West Bengal","WEST-BENGAL",21.6268379,87.5222746,"https://www.holidify.com/images/bgImages/DIGHA.jpg"
"DIMAPUR","Dimapur, Nagaland","NAGALAND",25.8,93.783333,"https://www.holidify.com/images/bgImages/DIMAPUR.jpg"
"DIPHU","Diphu, Assam","ASSAM",25.841554,93.4245984,"https://www.holidify.com/images/bgImages/DIPHU.jpg"
"DISPUR","Dispur, Assam","ASSAM",26.140833,91.790833,"https://www.holidify.com/images/bgImages/DISPUR.jpg"
"DIU","Diu, Daman and Diu","GUJARAT",20.7150151,70.9895325,"https://www.holidify.com/images/bgImages/DIU.jpg"
"DIVEAGAR","Diveagar, Maharashtra","MAHARASHTRA-GOA",18.1682321,72.9901898,"https://www.holidify.com/images/bgImages/DIVEAGAR.jpg"
"DOOARS","Dooars, West Bengal","WEST-BENGAL",26.6966649,89.1445953,"https://www.holidify.com/images/bgImages/DOOARS.jpg"
"DRAS","Dras, Jammu & Kashmir","JAMMU-AND-KASHMIR",34.4275961,75.751685,"https://www.holidify.com/images/bgImages/DRAS.jpg"
"DUBARE","Dubare, Karnataka","KARNATAKA",12.3685023,75.9049493,"https://www.holidify.com/images/bgImages/DUBARE.jpg"
"DUDHWA-NATIONAL-PARK","Dudhwa National Park, Uttarakhand","UTTAR-PRADESH",28.470872,80.699263,"https://www.holidify.com/images/bgImages/DUDHWA-NATIONAL-PARK.jpg"
"DURGAPUR","Durgapur, West Bengal","WEST-BENGAL",23.5204443,87.3119227,"https://www.holidify.com/images/bgImages/DURGAPUR.jpg"
"DURSHET","Durshet, Maharashtra","MAHARASHTRA-GOA",18.7041601,73.2942267,"https://www.holidify.com/images/bgImages/DURSHET.jpg"
"DWARKA","Dwarka, Gujarat","GUJARAT",22.2441975,68.9684562,"https://www.holidify.com/images/bgImages/DWARKA.jpg"
"FARIDABAD","Faridabad, Haryana","HARYANA",28.4089123,77.3177894,"https://www.holidify.com/images/bgImages/FARIDABAD.jpg"
"FATEHPUR","Fatehpur, Rajasthan","RAJASTHAN",27.9950204,74.9617924,"https://www.holidify.com/images/bgImages/FATEHPUR.jpg"
"FIROZABAD","Firozabad","UTTAR-PRADESH",27.15698,78.38923,"https://www.holidify.com/images/bgImages/FIROZABAD.jpg"
"GANAPATIPULE","Ganpatipule, Maharashtra","MAHARASHTRA-GOA",17.1488663,73.2726946,"https://www.holidify.com/images/bgImages/GANAPATIPULE.jpg"
"GANDHINAGAR","Gandhinagar, Gujarat","GUJARAT",23.2248196,72.6463769,"https://www.holidify.com/images/bgImages/GANDHINAGAR.jpg"
"GANDIKOTA","Gandikota","ANDHRA-PRADESH",14.8149,78.2863,"https://www.holidify.com/images/bgImages/GANDIKOTA.jpg"
"GANGOTRI","Gangotri, Uttarakhand","UTTARAKHAND",30.9946945,78.9398402,"https://www.holidify.com/images/bgImages/GANGOTRI.jpg"
"GANGTOK","Gangtok, Sikkim","SIKKIM",27.3389356,88.6065035,"https://www.holidify.com/images/bgImages/GANGTOK.jpg"
"GAUMUKH","Gaumukh, Uttarakhand","UTTARAKHAND",30.9265434,79.080255,"https://www.holidify.com/images/bgImages/GAUMUKH.jpg"
"GHAZIABAD","Ghaziabad, Uttar Pradesh","UTTAR-PRADESH",28.6691565,77.4537578,"https://www.holidify.com/images/bgImages/GHAZIABAD.jpg"
"GIR-NATIONAL-PARK","Gir National Park, Gujarat","GUJARAT",21.1356,70.7967,"https://www.holidify.com/images/bgImages/GIR-NATIONAL-PARK.jpg"
"GIRNAR","Girnar, Gujarat","GUJARAT",21.5178869,70.5502916,"https://www.holidify.com/images/bgImages/GIRNAR.jpg"
"GOA","Goa","GOA",15.4989,73.8278,"https://www.holidify.com/images/bgImages/GOA.jpg"
"GOALPARA","Goalpara, Assam","ASSAM",26.1667,90.6167,"https://www.holidify.com/images/bgImages/GOALPARA.jpg"
"GOKARNA","Gokarna, Karnataka","KARNATAKA",14.55,74.3167,"https://www.holidify.com/images/bgImages/GOKARNA.jpg"
"GOPALPUR","Gopalpur, Odisha","ODISHA",19.2650124,84.8724284,"https://www.holidify.com/images/bgImages/GOPALPUR.jpg"
"GULBARGA","Gulbarga","KARNATAKA",17.329731,76.8342957,"https://www.holidify.com/images/bgImages/GULBARGA.jpg"
"GULMARG","Gulmarg, Jammu & Kashmir","JAMMU-AND-KASHMIR",34.0609899,74.387576,"https://www.holidify.com/images/bgImages/GULMARG.jpg"
"GUNTUR","Guntur, Andhra Pradesh","ANDHRA-PRADESH",16.3066525,80.4365402,"https://www.holidify.com/images/bgImages/GUNTUR.jpg"
"GUPTAKASHI","Guptakashi, Uttarakhand","UTTARAKHAND",30.5229102,79.0777138,"https://www.holidify.com/images/bgImages/GUPTAKASHI.jpg"
"GURGAON","Gurgaon, Haryana","HARYANA",28.4179583,76.9104653,"https://www.holidify.com/images/bgImages/GURGAON.jpg"
"GURUVAYUR","Guruvayur, Kerala","KERALA",10.5949449,76.038376,"https://www.holidify.com/images/bgImages/GURUVAYUR.jpg"
"GUWAHATI","Guwahati, Assam","ASSAM",26.147129,91.7355511,"https://www.holidify.com/images/bgImages/GUWAHATI.jpg"
"GWALIOR","Gwalior, Madhya Pradesh","MADHYA-PRADESH",26.2182871,78.1828308,"https://www.holidify.com/images/bgImages/GWALIOR.jpg"
"HAILAKANDI","Hailakandi, Assam","ASSAM",24.68,92.57,"https://www.holidify.com/images/bgImages/HAILAKANDI.jpg"
"HAJO","Hajo, Assam","ASSAM",26.2519311,91.5257042,"https://www.holidify.com/images/bgImages/HAJO.jpg"
"HALDIA","Haldia, West Bengal","WEST-BENGAL",22.03,88.06,"https://www.holidify.com/images/bgImages/HALDIA.jpg"
"HALEBID","Halebidu, Karnataka","KARNATAKA",13.2169444,75.9916667,"https://www.holidify.com/images/bgImages/HALEBID.jpg"
"HAMPI","Hampi, Karnataka","KARNATAKA",15.333333,76.466667,"https://www.holidify.com/images/bgImages/HAMPI.jpg"
"HARIDWAR","Haridwar, Uttarakhand","UTTARAKHAND",29.9456906,78.1642478,"https://www.holidify.com/images/bgImages/HARIDWAR.jpg"
"HARIHARESHWAR","Harihareshwar, Maharashtra","MAHARASHTRA-GOA",17.9937447,73.0257691,"https://www.holidify.com/images/bgImages/HARIHARESHWAR.jpg"
"HARSIL","Harsil, Uttarakhand","UTTARAKHAND",31.0383069,78.7377016,"https://www.holidify.com/images/bgImages/HARSIL.jpg"
"HASSAN","Hassan, Karnataka","KARNATAKA",13.0068142,76.0995519,"https://www.holidify.com/images/bgImages/HASSAN.jpg"
"HASTINAPUR","Hastinapur, Uttar Pradesh","UTTAR-PRADESH",29.1568812,77.9938497,"https://www.holidify.com/images/bgImages/HASTINAPUR.jpg"
"HAZARIBAGH","Hazaribagh, Jharkhand","JHARKHAND",23.9966213,85.3691068,"https://www.holidify.com/images/bgImages/HAZARIBAGH.jpg"
"HEDVI","Hedvi, Maharashtra","MAHARASHTRA-GOA",17.3593734,73.2308239,"https://www.holidify.com/images/bgImages/HEDVI.jpg"
"HEMIS","Hemis, Jammu & Kashmir","JAMMU-AND-KASHMIR",33.9136846,77.710153,"https://www.holidify.com/images/bgImages/HEMIS.jpg"
"HEMKUND-SAHIB","Hemkund Sahib","UTTARAKHAND",30.70136,79.5933522,"https://www.holidify.com/images/bgImages/HEMKUND-SAHIB.jpg"
"HIMMATNAGAR","Himmatnagar","GUJARAT",23.35175,72.95969,"https://www.holidify.com/images/bgImages/HIMMATNAGAR.jpg"
"HOGENAKKAL","Hogenakkal, Tamil Nadu","TAMIL-NADU",12.1183374,77.7781069,"https://www.holidify.com/images/bgImages/HOGENAKKAL.jpg"
"HONNEMARADU","Honnemaradu, Karnataka","KARNATAKA",14.1788901,74.8755663,"https://www.holidify.com/images/bgImages/HONNEMARADU.jpg"
"HORANADU","Horanadu, Karnataka","KARNATAKA",13.267411,75.3441329,"https://www.holidify.com/images/bgImages/HORANADU.jpg"
"HOWRAH","Howrah","WEST-BENGAL",22.5957689,88.2636394,"https://www.holidify.com/images/bgImages/HOWRAH.jpg"
"HYDERABAD","Hyderabad, Andhra Pradesh","TELANGANA",17.385044,78.486671,"https://www.holidify.com/images/bgImages/HYDERABAD.jpg"
"IDUKKI","Idukki, Kerala","KERALA",9.7498324,77.1530879,"https://www.holidify.com/images/bgImages/IDUKKI.jpg"
"IGATPURI","Igatpuri, Maharashtra","MAHARASHTRA-GOA",19.6973156,73.5609361,"https://www.holidify.com/images/bgImages/IGATPURI.jpg"
"IMPHAL","Imphal, Manipur","MANIPUR",24.806299,93.9481969,"https://www.holidify.com/images/bgImages/IMPHAL.jpg"
"INDORE","Indore, Madhya Pradesh","MADHYA-PRADESH",22.7195687,75.8577258,"https://www.holidify.com/images/bgImages/INDORE.jpg"
"ITANAGAR","Itanagar, Arunachal Pradesh","ARUNACHAL-PRADESH",27.0869009,93.6086099,"https://www.holidify.com/images/bgImages/ITANAGAR.jpg"
"JABALPUR","Jabalpur, Madhya Pradesh","MADHYA-PRADESH",23.1667,79.95,"https://www.holidify.com/images/bgImages/JABALPUR.jpg"
"JAGDALPUR","Jagdalpur","CHHATTISGARH",19.08977,82.02153,"https://www.holidify.com/images/bgImages/JAGDALPUR.jpg"
"JAGESHWAR","Jageshwar, Uttarakhand","UTTARAKHAND",29.6128647,79.8464804,"https://www.holidify.com/images/bgImages/JAGESHWAR.jpg"
"JAIPUR","Jaipur, Rajasthan","RAJASTHAN",26.9124165,75.7872879,"https://www.holidify.com/images/bgImages/JAIPUR.jpg"
"JAISALMER","Jaisalmer, Rajasthan","RAJASTHAN",26.9157487,70.9083443,"https://www.holidify.com/images/bgImages/JAISALMER.jpg"
"JALANDHAR","Jalandhar","PUNJAB",31.326,75.5762,"https://www.holidify.com/images/bgImages/JALANDHAR.jpg"
"JALDAPARA-WILDLIFE-SANCTUARY","Jaldapara National Park, West Bengal","WEST-BENGAL",26.5832324,89.3795835,"https://www.holidify.com/images/bgImages/JALDAPARA-WILDLIFE-SANCTUARY.jpg"
"JALDHAKA","Jaldhaka, West Bengal","WEST-BENGAL",26.4699629,89.1467832,"https://www.holidify.com/images/bgImages/JALDHAKA.jpg"
"JALPAIGURI","Jalpaiguri, West Bengal","WEST-BENGAL",26.52,88.73,"https://www.holidify.com/images/bgImages/JALPAIGURI.jpg"
"JAMMU","Jammu, Jammu & Kashmir","JAMMU-AND-KASHMIR",32.7266016,74.8570259,"https://www.holidify.com/images/bgImages/JAMMU.jpg"
"JAMSHEDPUR","Jamshedpur, Jharkhand","JHARKHAND",22.8045665,86.2028754,"https://www.holidify.com/images/bgImages/JAMSHEDPUR.jpg"
"JAWHAR","Jawhar, Maharashtra","MAHARASHTRA-GOA",19.9050038,73.2312946,"https://www.holidify.com/images/bgImages/JAWHAR.jpg"
"JEYPORE","Jeypore, Odisha","ODISHA",18.865278,82.573056,"https://www.holidify.com/images/bgImages/JEYPORE.jpg"
"JHALAWAR","Jhalawar, Rajasthan","RAJASTHAN",24.6,76.15,"https://www.holidify.com/images/bgImages/JHALAWAR.jpg"
"JHANSI","Jhansi","UTTAR-PRADESH",25.4484,78.5685,"https://www.holidify.com/images/bgImages/JHANSI.jpg"
"JHUNJHUNU","Jhunjhunu, Rajasthan","RAJASTHAN",28.13,75.4,"https://www.holidify.com/images/bgImages/JHUNJHUNU.jpg"
"JODHPUR","Jodhpur, Rajasthan","RAJASTHAN",26.2389469,73.0243094,"https://www.holidify.com/images/bgImages/JODHPUR.jpg"
"JOG-FALLS","Jog Falls, Karnataka","KARNATAKA",14.2292076,74.8119639,"https://www.holidify.com/images/bgImages/JOG-FALLS.jpg"
"JORHAT","Jorhat, Assam","ASSAM",26.75602,94.20945,"https://www.holidify.com/images/bgImages/JORHAT.jpg"
"JOSHIMATH","Joshimath, Uttarakhand","UTTARAKHAND",30.5505524,79.5659633,"https://www.holidify.com/images/bgImages/JOSHIMATH.jpg"
"JOWAI","Jowai, Meghalaya","MEGHALAYA",25.45,92.2,"https://www.holidify.com/images/bgImages/JOWAI.jpg"
"JUNAGADH","Junagadh, Gujarat","GUJARAT",21.522184,70.4578768,"https://www.holidify.com/images/bgImages/JUNAGADH.jpg"
"KABINI","Kabini, Karnataka","KARNATAKA",12.1228656,76.6936046,"https://www.holidify.com/images/bgImages/KABINI.jpg"
"KAILASHAHAR","Kailashahar, Tripura","TRIPURA",24.3333,92.0167,"https://www.holidify.com/images/bgImages/KAILASHAHAR.jpg"
"KAKINADA","Kakinada, Andhra Pradesh","ANDHRA-PRADESH",16.951111,82.252778,"https://www.holidify.com/images/bgImages/KAKINADA.jpg"
"KALIMPONG","Kalimpong, West Bengal","WEST-BENGAL",27.06,88.47,"https://www.holidify.com/images/bgImages/KALIMPONG.jpg"
"KALPA","Kalpa, Himachal Pradesh","HIMACHAL-PRADESH",31.5389997,78.2518863,"https://www.holidify.com/images/bgImages/KALPA.jpg"
"KALPETTA","Kalpetta, Kerala","KERALA",11.5833985,76.0661527,"https://www.holidify.com/images/bgImages/KALPETTA.jpg"
"KAMSHET","Kamshet, Maharashtra","MAHARASHTRA-GOA",18.7668236,73.5523271,"https://www.holidify.com/images/bgImages/KAMSHET.jpg"
"KANATAL","Kanatal, Uttarakhand","UTTARAKHAND",30.412054,78.3429,"https://www.holidify.com/images/bgImages/KANATAL.jpg"
"KANCHIPURAM","Kanchipuram, Tamil Nadu","TAMIL-NADU",12.8341735,79.7036402,"https://www.holidify.com/images/bgImages/KANCHIPURAM.jpg"
"KANGRA","Kangra, Himachal Pradesh","HIMACHAL-PRADESH",32.0998031,76.2691006,"https://www.holidify.com/images/bgImages/KANGRA.jpg"
"KANHA-NATIONAL-PARK","Kanha National Park, Madhya Pradesh","MADHYA-PRADESH",22.2982742,80.5882803,"https://www.holidify.com/images/bgImages/KANHA-NATIONAL-PARK.jpg"
"KANNUR","Kannur, Kerala","KERALA",11.8744775,75.3703662,"https://www.holidify.com/images/bgImages/KANNUR.jpg"
"KANPUR","Kanpur","UTTAR-PRADESH",26.4499,80.3319,"https://www.holidify.com/images/bgImages/KANPUR.jpg"
"KANYAKUMARI","Kanyakumari, Tamil Nadu","TAMIL-NADU",8.0883064,77.5384507,"https://www.holidify.com/images/bgImages/KANYAKUMARI.jpg"
"KARGIL","Kargil, Jammu & Kashmir","JAMMU-AND-KASHMIR",34.5569018,76.1377935,"https://www.holidify.com/images/bgImages/KARGIL.jpg"
"KARIMGANJ","Karimganj, Assam","ASSAM",24.87,92.35,"https://www.holidify.com/images/bgImages/KARIMGANJ.jpg"
"KARIMNAGAR","Karimnagar","TELANGANA",18.45926,79.13624,"https://www.holidify.com/images/bgImages/KARIMNAGAR.jpg"
"KARJAT","Karjat, Maharashtra","MAHARASHTRA-GOA",18.9192249,73.3277223,"https://www.holidify.com/images/bgImages/KARJAT.jpg"
"KARKALA","Karkala, Karnataka","KARNATAKA",13.2150997,74.9961799,"https://www.holidify.com/images/bgImages/KARKALA.jpg"
"KARNAL","Karnal","HARYANA",29.6856929,76.9904825,"https://www.holidify.com/images/bgImages/KARNAL.jpg"
"KARNAPRAYAG","Karnaprayag, Uttarakhand","UTTARAKHAND",30.2587203,79.2183275,"https://www.holidify.com/images/bgImages/KARNAPRAYAG.jpg"
"KARWAR","Karwar, Karnataka","KARNATAKA",14.8132769,74.1310684,"https://www.holidify.com/images/bgImages/KARWAR.jpg"
"KASARGOD","Kasargod, Kerala","KERALA",12.4386702,75.201229,"https://www.holidify.com/images/bgImages/KASARGOD.jpg"
"KASAULI","Kasauli, Himachal Pradesh","HIMACHAL-PRADESH",30.8989,76.9647,"https://www.holidify.com/images/bgImages/KASAULI.jpg"
"KASHID","Kashid, Maharashtra","MAHARASHTRA-GOA",18.4376235,72.9091436,"https://www.holidify.com/images/bgImages/KASHID.jpg"
"KASOL","Kasol, Himachal Pradesh","HIMACHAL-PRADESH",32.0099986,77.3149625,"https://www.holidify.com/images/bgImages/KASOL.jpg"
"KATTAPPANA","Kattappana","KERALA",9.66438,77.09747,"https://www.holidify.com/images/bgImages/KATTAPPANA.jpg"
"KAUSANI","Kausani, Uttarakhand","UTTARAKHAND",29.8445269,79.6038842,"https://www.holidify.com/images/bgImages/KAUSANI.jpg"
"KAZA","Kaza, Himachal Pradesh","HIMACHAL-PRADESH",32.2275991,78.0709903,"https://www.holidify.com/images/bgImages/KAZA.jpg"
"KAZIRANGA-NATIONAL-PARK","Kaziranga National Park, Assam","ASSAM",26.6,93.466667,"https://www.holidify.com/images/bgImages/KAZIRANGA-NATIONAL-PARK.jpg"
"KEDARNATH","Kedarnath, Uttarakhand","UTTARAKHAND",30.73,79.07,"https://www.holidify.com/images/bgImages/KEDARNATH.jpg"
"KEMMANAGUNDI","Kemmanagundi, Karnataka","KARNATAKA",13.5677008,75.7943344,"https://www.holidify.com/images/bgImages/KEMMANAGUNDI.jpg"
"KHAJJIAR","Khajjiar, Himachal Pradesh","HIMACHAL-PRADESH",32.5457979,76.0580469,"https://www.holidify.com/images/bgImages/KHAJJIAR.jpg"
"KHAJURAHO","Khajuraho, Madhya Pradesh","MADHYA-PRADESH",24.8318452,79.9198549,"https://www.holidify.com/images/bgImages/KHAJURAHO.jpg"
"KHAMMAM","Khammam, Andhra Pradesh","TELANGANA",17.6350961,80.6326916,"https://www.holidify.com/images/bgImages/KHAMMAM.jpg"
"KHANDALA","Khandala, Maharashtra","MAHARASHTRA-GOA",18.758,73.372,"https://www.holidify.com/images/bgImages/KHANDALA.jpg"
"KHILANMARG","Khilanmarg, Jammu & Kashmir","JAMMU-AND-KASHMIR",34.0478474,74.3558148,"https://www.holidify.com/images/bgImages/KHILANMARG.jpg"
"KHIMSAR","Khimsar, Rajasthan","RAJASTHAN",26.97654,73.398201,"https://www.holidify.com/images/bgImages/KHIMSAR.jpg"
"KHONSA","Khonsa, Arunachal Pradesh","ARUNACHAL-PRADESH",26.9928749,95.501379,"https://www.holidify.com/images/bgImages/KHONSA.jpg"
"KINNAUR","Kinnaur, Himachal Pradesh","HIMACHAL-PRADESH",31.6509576,78.4751945,"https://www.holidify.com/images/bgImages/KINNAUR.jpg"
"KOCHI","Kochi, Kerala","KERALA",9.97,76.28,"https://www.holidify.com/images/bgImages/KOCHI.jpg"
"KODAIKANAL","Kodaikanal, Tamil Nadu","TAMIL-NADU",10.2381136,77.4891822,"https://www.holidify.com/images/bgImages/KODAIKANAL.jpg"
"KODANAD","Kodanad","KERALA",10.12046,76.48333,"https://www.holidify.com/images/bgImages/KODANAD.jpg"
"KOHIMA","Kohima, Nagaland","NAGALAND",25.67035,94.109515,"https://www.holidify.com/images/bgImages/KOHIMA.jpg"
"KOLAD","Kolad, Maharashtra","MAHARASHTRA-GOA",18.4077066,73.2101837,"https://www.holidify.com/images/bgImages/KOLAD.jpg"
"KOLASIB","Kolasib, Mizoram","MIZORAM",24.231111,92.676111,"https://www.holidify.com/images/bgImages/KOLASIB.jpg"
"KOLHAPUR","Kolhapur, Maharashtra","MAHARASHTRA-GOA",16.6913076,74.2448662,"https://www.holidify.com/images/bgImages/KOLHAPUR.jpg"
"KOLKATA","Kolkata, West Bengal","WEST-BENGAL",22.572646,88.363895,"https://www.holidify.com/images/bgImages/KOLKATA.jpg"
"KOLLAM","Kollam, Kerala","KERALA",8.8932118,76.6141396,"https://www.holidify.com/images/bgImages/KOLLAM.jpg"
"KONARK","Konark, Orissa","ODISHA",19.8920686,86.091184,"https://www.holidify.com/images/bgImages/KONARK.jpg"
"KOTA","Kota, Rajasthan","RAJASTHAN",25.2138156,75.8647527,"https://www.holidify.com/images/bgImages/KOTA.jpg"
"KOTAGIRI","Kotagiri, Karnataka","KARNATAKA",11.4142991,76.8663307,"https://www.holidify.com/images/bgImages/KOTAGIRI.jpg"
"KOTTAYAM","Kottayam, Kerala","KERALA",9.5915668,76.5221531,"https://www.holidify.com/images/bgImages/KOTTAYAM.jpg"
"KOVALAM","Kovalam, Kerala","KERALA",8.400721,76.978137,"https://www.holidify.com/images/bgImages/KOVALAM.jpg"
"KOZHIKODE","Kozhikode, Kerala","KERALA",11.2587531,75.78041,"https://www.holidify.com/images/bgImages/KOZHIKODE.jpg"
"KUDREMUKH","Kudremukh, Karnataka","KARNATAKA",13.1413316,75.2537397,"https://www.holidify.com/images/bgImages/KUDREMUKH.jpg"
"KUFRI","Kufri, Himachal Pradesh","HIMACHAL-PRADESH",31.0978583,77.2678137,"https://www.holidify.com/images/bgImages/KUFRI.jpg"
"KUKKE-SUBRAMANYA","Kukke Subramanya, Karnataka","KARNATAKA",12.7012147,75.5997578,"https://www.holidify.com/images/bgImages/KUKKE-SUBRAMANYA.jpg"
"KULLU","Kullu, Himachal Pradesh","HIMACHAL-PRADESH",31.957851,77.1094597,"https://www.holidify.com/images/bgImages/KULLU.jpg"
"KUMAON","Kumaon, Uttarakhand","UTTARAKHAND",29.2793505,79.4703885,"https://www.holidify.com/images/bgImages/KUMAON.jpg"
"KUMARAKOM","Kumarakom, Kerala","KERALA",9.6441722,76.5189064,"https://www.holidify.com/images/bgImages/KUMARAKOM.jpg"
"KUMBAKONAM","Kumbakonam, Tamil Nadu","TAMIL-NADU",10.9616945,79.3881132,"https://www.holidify.com/images/bgImages/KUMBAKONAM.jpg"
"KUMBHALGARH","Kumbhalgarh, Rajasthan","RAJASTHAN",25.1495495,73.583705,"https://www.holidify.com/images/bgImages/KUMBHALGARH.jpg"
"KUMILY","Kumily, Kerala","KERALA",9.6583156,77.1181046,"https://www.holidify.com/images/bgImages/KUMILY.jpg"
"KUMTA","Kumta, Karnataka","KARNATAKA",14.4275482,74.4190929,"https://www.holidify.com/images/bgImages/KUMTA.jpg"
"KUNDAPUR","Kundapur, Karnataka","KARNATAKA",13.6271213,74.6898085,"https://www.holidify.com/images/bgImages/KUNDAPUR.jpg"
"KURNOOL","Kurnool, Andhra Pradesh","ANDHRA-PRADESH",15.8281257,78.0372792,"https://www.holidify.com/images/bgImages/KURNOOL.jpg"
"KURSEONG","Kurseong, West Bengal","WEST-BENGAL",26.880013,88.278318,"https://www.holidify.com/images/bgImages/KURSEONG.jpg"
"KURUKSHETRA","Kurukshetra, Haryana","HARYANA",30,76.75,"https://www.holidify.com/images/bgImages/KURUKSHETRA.jpg"
"KURUMBALAKOTTA","Kurumbalakotta","KERALA",10.54433,76.13641,"https://www.holidify.com/images/bgImages/KURUMBALAKOTTA.jpg"
"KUSHINAGAR","Kushinagar","UTTAR-PRADESH",26.74489,83.88991,"https://www.holidify.com/images/bgImages/KUSHINAGAR.jpg"
"KUTCH","Kutch, Gujarat","GUJARAT",23.7337326,69.8597406,"https://www.holidify.com/images/bgImages/KUTCH.jpg"
"KUTRALLAM","Kutralam (Courtallam), Tamil Nadu","TAMIL-NADU",8.9052778,77.3034299,"https://www.holidify.com/images/bgImages/KUTRALLAM.jpg"
"LADAKH","Leh Ladakh, Jammu &amp; Kashmir","JAMMU-AND-KASHMIR",34,78,"https://www.holidify.com/images/bgImages/LADAKH.jpg"
"LAKSHADWEEP-ISLANDS","Lakshadweep","UNION-TERRITORY",10.0765997,73.6399809,"https://www.holidify.com/images/bgImages/LAKSHADWEEP-ISLANDS.jpg"
"LAMAYURU","Lamayuru, Jammu & Kashmir","JAMMU-AND-KASHMIR",34.2832931,76.7733263,"https://www.holidify.com/images/bgImages/LAMAYURU.jpg"
"LANSDOWNE","Lansdowne, Uttarakhand","UTTARAKHAND",29.8377457,78.6871069,"https://www.holidify.com/images/bgImages/LANSDOWNE.jpg"
"LATAGURI","Lataguri, West Bengal","WEST-BENGAL",26.706283,88.766085,"https://www.holidify.com/images/bgImages/LATAGURI.jpg"
"LATUR","Latur","MAHARASHTRA-GOA",18.4087934,76.5603828,"https://www.holidify.com/images/bgImages/LATUR.jpg"
"LAVASA","Lavasa, Maharashtra","MAHARASHTRA-GOA",18.4076557,73.5074517,"https://www.holidify.com/images/bgImages/LAVASA.jpg"
"LEPAKSHI","Lepakshi, Andhra Pradesh","ANDHRA-PRADESH",13.81,77.6,"https://www.holidify.com/images/bgImages/LEPAKSHI.jpg"
"LILABARI","Lilabari, Assam","ASSAM",27.2883408,94.0920909,"https://www.holidify.com/images/bgImages/LILABARI.jpg"
"LOLEGAON","Lolegaon, West Bengal","WEST-BENGAL",27.020642,88.5649874,"https://www.holidify.com/images/bgImages/LOLEGAON.jpg"
"LONAR","Lonar, Maharashtra","MAHARASHTRA-GOA",19.976681,76.524036,"https://www.holidify.com/images/bgImages/LONAR.jpg"
"LONAVALA","Lonavala, Maharashtra","MAHARASHTRA-GOA",18.74749,73.403442,"https://www.holidify.com/images/bgImages/LONAVALA.jpg"
"LONI","Loni","UTTAR-PRADESH",28.74715,77.28958,"https://www.holidify.com/images/bgImages/LONI.jpg"
"LUCKNOW","Lucknow, Uttar Pradesh","UTTAR-PRADESH",26.8465108,80.9466832,"https://www.holidify.com/images/bgImages/LUCKNOW.jpg"
"LUDHIANA","Ludhiana, Punjab","PUNJAB",30.900965,75.8572758,"https://www.holidify.com/images/bgImages/LUDHIANA.jpg"
"LUNGLEI","Lunglei, Mizoram","MIZORAM",22.909806,92.7526,"https://www.holidify.com/images/bgImages/LUNGLEI.jpg"
"MACHELIPATNAM","Machilipatnam, Andhra Pradesh","ANDHRA-PRADESH",16.17,81.13,"https://www.holidify.com/images/bgImages/MACHELIPATNAM.jpg"
"MADHUBANI","Madhubani, Bihar","BIHAR",26.3468544,86.0715474,"https://www.holidify.com/images/bgImages/MADHUBANI.jpg"
"MADHYAMAHESHWAR","Madhyamaheshwar, Uttarakhand","UTTARAKHAND",30.628385,79.212606,"https://www.holidify.com/images/bgImages/MADHYAMAHESHWAR.jpg"
"MADIKERI","Madikeri, Karnataka","KARNATAKA",12.4244205,75.7381856,"https://www.holidify.com/images/bgImages/MADIKERI.jpg"
"MADUMALAI","Mudumalai National Park, Tamil Nadu","TAMIL-NADU",11.5833,76.55,"https://www.holidify.com/images/bgImages/MADUMALAI.jpg"
"MADURAI","Madurai, Tamil Nadu","TAMIL-NADU",9.9252007,78.1197754,"https://www.holidify.com/images/bgImages/MADURAI.jpg"
"MAHABALESHWAR","Mahabaleshwar, Maharashtra","MAHARASHTRA-GOA",17.92164,73.655632,"https://www.holidify.com/images/bgImages/MAHABALESHWAR.jpg"
"MAHABALIPURAM","Mahabalipuram, Tamil Nadu","TAMIL-NADU",12.626927,80.1927109,"https://www.holidify.com/images/bgImages/MAHABALIPURAM.jpg"
"MAHESHWAR","Maheshwar, Madhya Pradesh","MADHYA-PRADESH",22.1772853,75.5829782,"https://www.holidify.com/images/bgImages/MAHESHWAR.jpg"
"MAJULI","Majuli, Assam","ASSAM",26.947665,94.173756,"https://www.holidify.com/images/bgImages/MAJULI.jpg"
"MALAMPUZHA","Malampuzha, Kerala","KERALA",10.8670324,76.6842652,"https://www.holidify.com/images/bgImages/MALAMPUZHA.jpg"
"MALAPPURAM","Malappuram, Kerala","KERALA",11.0667,76.0667,"https://www.holidify.com/images/bgImages/MALAPPURAM.jpg"
"MALDA","Malda, West Bengal","WEST-BENGAL",25.0108408,88.1410967,"https://www.holidify.com/images/bgImages/MALDA.jpg"
"MALSHEJ-GHAT","Malshej Ghat, Maharashtra","MAHARASHTRA-GOA",19.3400131,73.7903847,"https://www.holidify.com/images/bgImages/MALSHEJ-GHAT.jpg"
"MALVAN","Malvan, Maharashtra","MAHARASHTRA-GOA",16.056535,73.468752,"https://www.holidify.com/images/bgImages/MALVAN.jpg"
"MAMIT","Mamit, Mizoram","MIZORAM",23.9294441,92.4905707,"https://www.holidify.com/images/bgImages/MAMIT.jpg"
"MANALI","Manali, Himachal Pradesh","HIMACHAL-PRADESH",32.2396325,77.1887145,"https://www.holidify.com/images/bgImages/MANALI.jpg"
"MANANTHAVADY","Mananthavady","KERALA",11.77151,76.06035,"https://www.holidify.com/images/bgImages/MANANTHAVADY.jpg"
"MANAS-NATIONAL-PARK","Manas National Park, Assam","ASSAM",26.7459935,91.0203224,"https://www.holidify.com/images/bgImages/MANAS-NATIONAL-PARK.jpg"
"MANDAWA","Mandawa, Rajasthan","RAJASTHAN",28.05,75.15,"https://www.holidify.com/images/bgImages/MANDAWA.jpg"
"MANDI","Mandi, Himachal Pradesh","HIMACHAL-PRADESH",31.7081655,76.9313675,"https://www.holidify.com/images/bgImages/MANDI.jpg"
"MANDU","Mandu, Madhya Pradesh","MADHYA-PRADESH",22.348832,75.3963682,"https://www.holidify.com/images/bgImages/MANDU.jpg"
"MANGALORE","Mangalore, Karnataka","KARNATAKA",12.9141417,74.8559568,"https://www.holidify.com/images/bgImages/MANGALORE.jpg"
"MANIKARAN-SAHIB","Manikaran Sahib, Himachal Pradesh","HIMACHAL-PRADESH",32.027871,77.348042,"https://www.holidify.com/images/bgImages/MANIKARAN-SAHIB.jpg"
"MANNARKKAD","Mannarkkad","KERALA",11.04966,76.52856,"https://www.holidify.com/images/bgImages/MANNARKKAD.jpg"
"MANORI","Manori, Maharashtra","MAHARASHTRA-GOA",19.21,72.79,"https://www.holidify.com/images/bgImages/MANORI.jpg"
"MANTRALAYAM","Mantralayam, Andhra Pradesh","ANDHRA-PRADESH",15.941667,77.428056,"https://www.holidify.com/images/bgImages/MANTRALAYAM.jpg"
"MARAVANTHE","Maravanthe, Karnataka","KARNATAKA",13.726664,74.652529,"https://www.holidify.com/images/bgImages/MARAVANTHE.jpg"
"MARIGAON","Morigaon, Assam","ASSAM",26.2528853,92.336955,"https://www.holidify.com/images/bgImages/MARIGAON.jpg"
"MASHOBRA","Mashobra, Himachal Pradesh","HIMACHAL-PRADESH",31.1296226,77.2283453,"https://www.holidify.com/images/bgImages/MASHOBRA.jpg"
"MATHERAN","Matheran, Maharashtra","MAHARASHTRA-GOA",18.9886587,73.271179,"https://www.holidify.com/images/bgImages/MATHERAN.jpg"
"MATHURA","Mathura, Uttar Pradesh","UTTAR-PRADESH",27.4924134,77.673673,"https://www.holidify.com/images/bgImages/MATHURA.jpg"
"MAWSYNRAM","Mawsynram, Meghalaya","MEGHALAYA",25.2975363,91.5826356,"https://www.holidify.com/images/bgImages/MAWSYNRAM.jpg"
"MAYAPUR","Mayapur, West Bengal","WEST-BENGAL",23.4609982,88.4476565,"https://www.holidify.com/images/bgImages/MAYAPUR.jpg"
"MCLEODGANJ","Mcleodganj, Himachal Pradesh","HIMACHAL-PRADESH",32.2616629,76.3067954,"https://www.holidify.com/images/bgImages/MCLEODGANJ.jpg"
"MEERUT","Meerut","UTTAR-PRADESH",28.9844618,77.7064137,"https://www.holidify.com/images/bgImages/MEERUT.jpg"
"MIDNAPORE","Midnapore, West Bengal","WEST-BENGAL",22.4080376,87.3810727,"https://www.holidify.com/images/bgImages/MIDNAPORE.jpg"
"MIRIK","Mirik, West Bengal","WEST-BENGAL",26.885483,88.187256,"https://www.holidify.com/images/bgImages/MIRIK.jpg"
"MOKOKCHUNG","Mokokchung, Nagaland","NAGALAND",26.318609,94.512108,"https://www.holidify.com/images/bgImages/MOKOKCHUNG.jpg"
"MON","Mon, Nagaland","NAGALAND",26.722668,95.032764,"https://www.holidify.com/images/bgImages/MON.jpg"
"MOUNT-ABU","Mount Abu, Rajasthan","RAJASTHAN",24.5925,72.7155556,"https://www.holidify.com/images/bgImages/MOUNT-ABU.jpg"
"MUKTESHWAR","Mukteshwar, Uttarakhand","UTTARAKHAND",29.4604149,79.6558242,"https://www.holidify.com/images/bgImages/MUKTESHWAR.jpg"
"MUKUTMANIPUR","Mukutmanipur, West Bengal","WEST-BENGAL",22.949581,86.804652,"https://www.holidify.com/images/bgImages/MUKUTMANIPUR.jpg"
"MUMBAI","Mumbai, Maharashtra","MAHARASHTRA-GOA",19.0759837,72.8776559,"https://www.holidify.com/images/bgImages/MUMBAI.jpg"
"MUNDAKAYAM","Mundakayam","KERALA",9.55745,76.88716,"https://www.holidify.com/images/bgImages/MUNDAKAYAM.jpg"
"MUNNAR","Munnar, Kerala","KERALA",10.0889333,77.0595248,"https://www.holidify.com/images/bgImages/MUNNAR.jpg"
"MUNSIYARI","Munsiyari, Uttarakhand","UTTARAKHAND",30.0674,80.2386,"https://www.holidify.com/images/bgImages/MUNSIYARI.jpg"
"MURSHIDABAD","Murshidabad, West Bengal","WEST-BENGAL",24.18,88.27,"https://www.holidify.com/images/bgImages/MURSHIDABAD.jpg"
"MURUD-JANJIRA","Murud Janjira, Maharashtra","MAHARASHTRA-GOA",18.2999942,72.964511,"https://www.holidify.com/images/bgImages/MURUD-JANJIRA.jpg"
"MURUDESHWAR","Murudeshwar, Karnataka","KARNATAKA",14.0938889,74.4905556,"https://www.holidify.com/images/bgImages/MURUDESHWAR.jpg"
"MUSSOORIE","Mussoorie, Uttarakhand","UTTARAKHAND",30.4553391,78.0740462,"https://www.holidify.com/images/bgImages/MUSSOORIE.jpg"
"MUTHANGA-WILDLIFE-SANCTUARY","Muthanga Wildlife Sanctuary, Kerala","KERALA",11.6690787,76.3695167,"https://www.holidify.com/images/bgImages/MUTHANGA-WILDLIFE-SANCTUARY.jpg"
"MUZAFFARNAGAR","Muzaffarnagar","UTTAR-PRADESH",29.4726817,77.7085091,"https://www.holidify.com/images/bgImages/MUZAFFARNAGAR.jpg"
"MUZAFFARPUR","Muzaffarpur","BIHAR",26.122,85.379303,"https://www.holidify.com/images/bgImages/MUZAFFARPUR.jpg"
"MYSORE","Mysore, Karnataka","KARNATAKA",12.2958104,76.6393805,"https://www.holidify.com/images/bgImages/MYSORE.jpg"
"NABADWIP","Navadvipa, West Bengal","WEST-BENGAL",23.4036446,88.3676393,"https://www.holidify.com/images/bgImages/NABADWIP.jpg"
"NAGAPATTINAM","Nagapattinam, Tamil Nadu","TAMIL-NADU",10.77,79.83,"https://www.holidify.com/images/bgImages/NAGAPATTINAM.jpg"
"NAGARHOLE","Nagarhole, Karnataka","KARNATAKA",12.0416805,76.1319953,"https://www.holidify.com/images/bgImages/NAGARHOLE.jpg"
"NAGARJUNAKONDA","Nagarjunakonda, Andhra Pradesh","ANDHRA-PRADESH",16.5224898,79.2408858,"https://www.holidify.com/images/bgImages/NAGARJUNAKONDA.jpg"
"NAGARJUNSAGAR","Nagarjunsagar, Andhra Pradesh","TELANGANA",16.5842247,79.3179595,"https://www.holidify.com/images/bgImages/NAGARJUNSAGAR.jpg"
"NAGGAR","Naggar, Himachal Pradesh","HIMACHAL-PRADESH",32.1166667,77.1666667,"https://www.holidify.com/images/bgImages/NAGGAR.jpg"
"NAGPUR","Nagpur, Maharashtra","MAHARASHTRA-GOA",21.1458004,79.0881546,"https://www.holidify.com/images/bgImages/NAGPUR.jpg"
"NAHAN","Nahan, Himachal Pradesh","HIMACHAL-PRADESH",30.5599327,77.295483,"https://www.holidify.com/images/bgImages/NAHAN.jpg"
"NAINITAL","Nainital, Uttarakhand","UTTARAKHAND",29.3803039,79.4635658,"https://www.holidify.com/images/bgImages/NAINITAL.jpg"
"NALAGARH","Nalagarh, Himachal Pradesh","HIMACHAL-PRADESH",31.0445587,76.7047904,"https://www.holidify.com/images/bgImages/NALAGARH.jpg"
"NALANDA","Nalanda, Bihar","BIHAR",25.1240603,85.4594749,"https://www.holidify.com/images/bgImages/NALANDA.jpg"
"NALBARI","Nalbari, Assam","ASSAM",26.4446185,91.4410527,"https://www.holidify.com/images/bgImages/NALBARI.jpg"
"NALGONDA","Nalgonda, Andhra Pradesh","TELANGANA",17.1882998,79.1999949,"https://www.holidify.com/images/bgImages/NALGONDA.jpg"
"NAMERI-NATIONAL-PARK","Nameri National Park, Assam","ASSAM",26.7459935,91.0203224,"https://www.holidify.com/images/bgImages/NAMERI-NATIONAL-PARK.jpg"
"NANAKMATTA","Nanakmatta, Uttarakhand","UTTARAKHAND",28.9409799,79.8156667,"https://www.holidify.com/images/bgImages/NANAKMATTA.jpg"
"NANDED","Nanded","MAHARASHTRA-GOA",19.1595,77.310898,"https://www.holidify.com/images/bgImages/NANDED.jpg"
"NANDI-HILLS","Nandi Hills, Karnataka","KARNATAKA",13.3666667,77.6833333,"https://www.holidify.com/images/bgImages/NANDI-HILLS.jpg"
"NARKANDA","Narkanda, Himachal Pradesh","HIMACHAL-PRADESH",31.2577718,77.4601581,"https://www.holidify.com/images/bgImages/NARKANDA.jpg"
"NARNAUL","Narnaul, Haryana","HARYANA",28.04,76.11,"https://www.holidify.com/images/bgImages/NARNAUL.jpg"
"NASIK","Nashik, Maharashtra","MAHARASHTRA-GOA",19.9974533,73.7898023,"https://www.holidify.com/images/bgImages/NASIK.jpg"
"NATHDWARA","Nathdwara, Rajasthan","RAJASTHAN",24.9291411,73.8213213,"https://www.holidify.com/images/bgImages/NATHDWARA.jpg"
"NATIONAL-CHAMBAL-WILDLIFE-SANCTUARY","National Chambal Wildlife Sanctuary, Uttar Pradesh","UTTAR-PRADESH",26.6666667,78.95,"https://www.holidify.com/images/bgImages/NATIONAL-CHAMBAL-WILDLIFE-SANCTUARY.jpg"
"NAUKUCHIATAL","Naukuchiatal, Uttarakhand","UTTARAKHAND",29.3483644,79.5581067,"https://www.holidify.com/images/bgImages/NAUKUCHIATAL.jpg"
"NAVI-MUMBAI","Navi Mumbai","MAHARASHTRA-GOA",19.0330488,73.0296625,"https://www.holidify.com/images/bgImages/NAVI-MUMBAI.jpg"
"NAWALGARH","Nawalgarh, Rajasthan","RAJASTHAN",27.851755,75.2740477,"https://www.holidify.com/images/bgImages/NAWALGARH.jpg"
"NEEMRANA","Neemrana, Rajasthan","RAJASTHAN",27.988889,76.388333,"https://www.holidify.com/images/bgImages/NEEMRANA.jpg"
"NELLIYAMPATHY","Nelliyampathy, Kerala","KERALA",10.5353931,76.6936074,"https://www.holidify.com/images/bgImages/NELLIYAMPATHY.jpg"
"NELLORE","Nellore, Andhra Pradesh","ANDHRA-PRADESH",14.43,79.97,"https://www.holidify.com/images/bgImages/NELLORE.jpg"
"NETARHAT","Netarhat, Jharkhand","JHARKHAND",23.4833,84.2667,"https://www.holidify.com/images/bgImages/NETARHAT.jpg"
"NILAMBUR","Nilambur, Kerala","KERALA",11.279432,76.239785,"https://www.holidify.com/images/bgImages/NILAMBUR.jpg"
"NIZAMABAD","Nizamabad, Andhra Pradesh","TELANGANA",18.2836461,84.0140984,"https://www.holidify.com/images/bgImages/NIZAMABAD.jpg"
"NOIDA","Noida, Uttar Pradesh","UTTAR-PRADESH",28.5355161,77.3910265,"https://www.holidify.com/images/bgImages/NOIDA.jpg"
"NONGPOH","Nongpoh, Meghalaya","MEGHALAYA",25.9,91.88,"https://www.holidify.com/images/bgImages/NONGPOH.jpg"
"NORTH-SIKKIM","North Sikkim, Sikkim","SIKKIM",27.4978787,88.5347783,"https://www.holidify.com/images/bgImages/NORTH-SIKKIM.jpg"
"NRITYAGRAM","Nrityagram, Karnataka","KARNATAKA",13.1617202,77.467329,"https://www.holidify.com/images/bgImages/NRITYAGRAM.jpg"
"NUBRA-VALLEY","Nubra Valley, Jammu & Kashmir","JAMMU-AND-KASHMIR",34.7885322,77.5431213,"https://www.holidify.com/images/bgImages/NUBRA-VALLEY.jpg"
"NUH","Nuh, Haryana","HARYANA",28.101084,77.004209,"https://www.holidify.com/images/bgImages/NUH.jpg"
"OMKARESHWAR","Omkareshwar, Madhya Pradesh","MADHYA-PRADESH",22.2507773,76.1522879,"https://www.holidify.com/images/bgImages/OMKARESHWAR.jpg"
"OOTY","Ooty, Tamil Nadu","TAMIL-NADU",11.411828,76.695356,"https://www.holidify.com/images/bgImages/OOTY.jpg"
"ORANG-NATIONAL-PARK","Orang National Park, Assam","ASSAM",26.61,92.36,"https://www.holidify.com/images/bgImages/ORANG-NATIONAL-PARK.jpg"
"ORCHHA","Orchha, Madhya Pradesh","MADHYA-PRADESH",25.367692,78.632799,"https://www.holidify.com/images/bgImages/ORCHHA.jpg"
"OSIAN","Osian, Rajasthan","RAJASTHAN",26.726,72.91,"https://www.holidify.com/images/bgImages/OSIAN.jpg"
"OZAR","Ozar, Maharashtra","MAHARASHTRA-GOA",20.0941489,73.9288575,"https://www.holidify.com/images/bgImages/OZAR.jpg"
"PACHMARHI","Pachmarhi, Madhya Pradesh","MADHYA-PRADESH",22.46834,78.432213,"https://www.holidify.com/images/bgImages/PACHMARHI.jpg"
"PAHALGAM","Pahalgam, Jammu & Kashmir","JAMMU-AND-KASHMIR",34.0160751,75.3149796,"https://www.holidify.com/images/bgImages/PAHALGAM.jpg"
"PALAKKAD","Palakkad, Kerala","KERALA",10.7867303,76.6547932,"https://www.holidify.com/images/bgImages/PALAKKAD.jpg"
"PALAMPUR","Palampur, Himachal Pradesh","HIMACHAL-PRADESH",32.1108599,76.5362526,"https://www.holidify.com/images/bgImages/PALAMPUR.jpg"
"PALANPUR","Palanpur","GUJARAT",24.17124,72.43195,"https://www.holidify.com/images/bgImages/PALANPUR.jpg"
"PALGHAR","Palghar","MAHARASHTRA-GOA",19.6997,72.7716,"https://www.holidify.com/images/bgImages/PALGHAR.jpg"
"PANCHGANI","Panchgani, Maharashtra","MAHARASHTRA-GOA",17.9203699,73.793854,"https://www.holidify.com/images/bgImages/PANCHGANI.jpg"
"PANCHKULA","Panchkula, Haryana","HARYANA",30.6942091,76.860565,"https://www.holidify.com/images/bgImages/PANCHKULA.jpg"
"PANIPAT","Panipat, Haryana","HARYANA",29.39,76.97,"https://www.holidify.com/images/bgImages/PANIPAT.jpg"
"PANNA","Panna, Madhya Pradesh","MADHYA-PRADESH",24.7180311,80.1819268,"https://www.holidify.com/images/bgImages/PANNA.jpg"
"PANVEL","Panvel, Maharashtra","MAHARASHTRA-GOA",18.9894007,73.1175162,"https://www.holidify.com/images/bgImages/PANVEL.jpg"
"PAONTA-SAHIB","Paonta Sahib","HIMACHAL-PRADESH",30.43796,77.61939,"https://www.holidify.com/images/bgImages/PAONTA-SAHIB.jpg"
"PAPI-KONDALU","Papikondalu, Andhra Pradesh","TELANGANA",17.66732,80.8811948,"https://www.holidify.com/images/bgImages/PAPI-KONDALU.jpg"
"PARWANOO","Parwanoo, Himachal Pradesh","HIMACHAL-PRADESH",30.83806,76.9585,"https://www.holidify.com/images/bgImages/PARWANOO.jpg"
"PASIGHAT","Pasighat, Arunachal Pradesh","ARUNACHAL-PRADESH",28.061899,95.3259358,"https://www.holidify.com/images/bgImages/PASIGHAT.jpg"
"PATAL-BHUVANESHWAR","Patal Bhuvaneshwar, Uttarakhand","UTTARAKHAND",29.688153,80.0919032,"https://www.holidify.com/images/bgImages/PATAL-BHUVANESHWAR.jpg"
"PATAN","Patan, Gujarat","GUJARAT",23.8493246,72.1266255,"https://www.holidify.com/images/bgImages/PATAN.jpg"
"PATHANAMTHITTA","Pathanamthitta, Kerala","KERALA",9.2647582,76.7870414,"https://www.holidify.com/images/bgImages/PATHANAMTHITTA.jpg"
"PATHANKOT","Pathankot, Punjab","PUNJAB",32.2706402,75.6425537,"https://www.holidify.com/images/bgImages/PATHANKOT.jpg"
"PATIALA","Patiala, Punjab","PUNJAB",30.32062,76.395126,"https://www.holidify.com/images/bgImages/PATIALA.jpg"
"PATNA","Patna, Bihar","BIHAR",25.61046,85.141667,"https://www.holidify.com/images/bgImages/PATNA.jpg"
"PATNITOP","Patnitop, Jammu & Kashmir","JAMMU-AND-KASHMIR",33.0847048,75.3353875,"https://www.holidify.com/images/bgImages/PATNITOP.jpg"
"PATTADAKAL","Pattadakal, Karnataka","KARNATAKA",15.9488181,75.8163521,"https://www.holidify.com/images/bgImages/PATTADAKAL.jpg"
"PAURI-GARHWAL","Pauri Garhwal, Uttarakhand","UTTARAKHAND",29.8,78.74,"https://www.holidify.com/images/bgImages/PAURI-GARHWAL.jpg"
"PEERMEDE","Peerumedu, Kerala","KERALA",9.5737218,76.9959872,"https://www.holidify.com/images/bgImages/PEERMEDE.jpg"
"PENCH-NATIONAL-PARK","Pench National Park, Madhya Pradesh","MADHYA-PRADESH",22.0166165,79.8296743,"https://www.holidify.com/images/bgImages/PENCH-NATIONAL-PARK.jpg"
"PHEK","Phek, Nagaland","NAGALAND",25.6634215,94.4703202,"https://www.holidify.com/images/bgImages/PHEK.jpg"
"PITHORAGARH","Pithoragarh, Uttarakhand","UTTARAKHAND",29.5828604,80.2181884,"https://www.holidify.com/images/bgImages/PITHORAGARH.jpg"
"POLLACHI","Pollachi","TAMIL-NADU",11.01601,76.97031,"https://www.holidify.com/images/bgImages/POLLACHI.jpg"
"PONDICHERRY","Pondicherry","UNION-TERRITORY",11.9138598,79.8144722,"https://www.holidify.com/images/bgImages/PONDICHERRY.jpg"
"PONMUDI","Ponmudi, Kerala","KERALA",8.7599422,77.1168753,"https://www.holidify.com/images/bgImages/PONMUDI.jpg"
"PONNANI","Ponnani, Kerala","KERALA",10.7677201,75.9259013,"https://www.holidify.com/images/bgImages/PONNANI.jpg"
"POOVAR","Poovar, Kerala","KERALA",8.3176908,77.070837,"https://www.holidify.com/images/bgImages/POOVAR.jpg"
"PORBANDAR","Porbandar, Gujarat","GUJARAT",21.6417069,69.6292654,"https://www.holidify.com/images/bgImages/PORBANDAR.jpg"
"PULWAMA","Pulwama, Jammu & Kashmir","JAMMU-AND-KASHMIR",33.8716117,74.8945692,"https://www.holidify.com/images/bgImages/PULWAMA.jpg"
"PUNE","Pune, Maharashtra","MAHARASHTRA-GOA",18.5204303,73.8567437,"https://www.holidify.com/images/bgImages/PUNE.jpg"
"PURI","Puri, Orissa","ODISHA",19.8133822,85.8314655,"https://www.holidify.com/images/bgImages/PURI.jpg"
"PURULIA","Purulia, West Bengal","WEST-BENGAL",23.3320779,86.365208,"https://www.holidify.com/images/bgImages/PURULIA.jpg"
"PUSHKAR","Pushkar, Rajasthan","RAJASTHAN",26.489749,74.5510856,"https://www.holidify.com/images/bgImages/PUSHKAR.jpg"
"PUTTAPARTHI","Puttaparthi, Andhra Pradesh","ANDHRA-PRADESH",14.1675,77.8113889,"https://www.holidify.com/images/bgImages/PUTTAPARTHI.jpg"
"RAICHAK","Raichak, West Bengal","WEST-BENGAL",22.2186797,88.1218171,"https://www.holidify.com/images/bgImages/RAICHAK.jpg"
"RAIGAD","Raigad, Maharashtra","MAHARASHTRA-GOA",18.5157519,73.1821623,"https://www.holidify.com/images/bgImages/RAIGAD.jpg"
"RAIPUR","Raipur, Chhattisgarh","CHATTISGARH",21.2514,81.6296,"https://www.holidify.com/images/bgImages/RAIPUR.jpg"
"RAJABHATKAWA","Rajabhatkhawa, West Bengal","WEST-BENGAL",26.6159979,89.5323932,"https://www.holidify.com/images/bgImages/RAJABHATKAWA.jpg"
"RAJAHAMUNDRY","Rajahmundry, Andhra Pradesh","ANDHRA-PRADESH",17.0005383,81.8040345,"https://www.holidify.com/images/bgImages/RAJAHAMUNDRY.jpg"
"RAJAJI-NATIONAL-PARK","Rajaji National Park, Uttarakhand","UTTARAKHAND",30.0997541,77.9749068,"https://www.holidify.com/images/bgImages/RAJAJI-NATIONAL-PARK.jpg"
"RAJGIR","Rajgir, Bihar","BIHAR",25.03,85.42,"https://www.holidify.com/images/bgImages/RAJGIR.jpg"
"RAJKOT","Rajkot","GUJARAT",22.3038945,70.8021599,"https://www.holidify.com/images/bgImages/RAJKOT.jpg"
"RAJMACHI","Rajmachi, Maharashtra","MAHARASHTRA-GOA",18.8289865,73.39549,"https://www.holidify.com/images/bgImages/RAJMACHI.jpg"
"RAJSAMAND","Rajsamand, Rajasthan","RAJASTHAN",25.07,73.88,"https://www.holidify.com/images/bgImages/RAJSAMAND.jpg"
"RAMESWARAM","Rameshwaram, Tamil Nadu","TAMIL-NADU",9.2876254,79.3129291,"https://www.holidify.com/images/bgImages/RAMESWARAM.jpg"
"RAMGARH","Ramgarh, Uttarakhand","UTTARAKHAND",29.45,79.55,"https://www.holidify.com/images/bgImages/RAMGARH.jpg"
"RAMNAGARAM","Ramanagaram, Karnataka","KARNATAKA",12.720679,77.2826476,"https://www.holidify.com/images/bgImages/RAMNAGARAM.jpg"
"RANAKPUR","Ranakpur, Rajasthan","RAJASTHAN",25.1160407,73.472527,"https://www.holidify.com/images/bgImages/RANAKPUR.jpg"
"RANCHI","Ranchi, Jharkhand","JHARKHAND",23.3440997,85.309562,"https://www.holidify.com/images/bgImages/RANCHI.jpg"
"RANIKHET","Ranikhet, Uttarakhand","UTTARAKHAND",29.6433615,79.4321825,"https://www.holidify.com/images/bgImages/RANIKHET.jpg"
"RANNI","Ranni","KERALA",9.35828,76.9967,"https://www.holidify.com/images/bgImages/RANNI.jpg"
"RANTHAMBORE","Ranthambore, Rajasthan","RAJASTHAN",26.0173274,76.5025742,"https://www.holidify.com/images/bgImages/RANTHAMBORE.jpg"
"RATANWADI","Ratanwadi, Maharashtra","MAHARASHTRA-GOA",19.5175,73.723056,"https://www.holidify.com/images/bgImages/RATANWADI.jpg"
"RATNAGIRI","Ratnagiri, Maharashtra","MAHARASHTRA-GOA",16.990215,73.3120233,"https://www.holidify.com/images/bgImages/RATNAGIRI.jpg"
"RAYAGADA","Rayagada","ODISHA",19.1754,83.4109,"https://www.holidify.com/images/bgImages/RAYAGADA.jpg"
"RISHIKESH","Rishikesh, Uttarakhand","UTTARAKHAND",30.0869281,78.2676116,"https://www.holidify.com/images/bgImages/RISHIKESH.jpg"
"ROHTAK","Rohtak","HARYANA",28.895515,76.606613,"https://www.holidify.com/images/bgImages/ROHTAK.jpg"
"ROING","Roing, Arunachal Pradesh","ARUNACHAL-PRADESH",28.1428773,95.8431495,"https://www.holidify.com/images/bgImages/ROING.jpg"
"ROURKELA","Rourkela, Odisha","ODISHA",22.260423,84.8535844,"https://www.holidify.com/images/bgImages/ROURKELA.jpg"
"RUDRA-PRAYAG","Rudra Prayag, Uttarakhand","UTTARAKHAND",30.2844141,78.9811407,"https://www.holidify.com/images/bgImages/RUDRA-PRAYAG.jpg"
"SABARIMALA","Sabarimala, Kerala","KERALA",9.4375,77.0805556,"https://www.holidify.com/images/bgImages/SABARIMALA.jpg"
"SAGARDWIP","Ganga Sagar (Sagardwip), West Bengal","WEST-BENGAL",21.6490224,88.0754188,"https://www.holidify.com/images/bgImages/SAGARDWIP.jpg"
"SAIHA","Saiha, Mizoram","MIZORAM",22.489734,92.979269,"https://www.holidify.com/images/bgImages/SAIHA.jpg"
"SALEM","Salem","TAMIL-NADU",11.6643,78.146,"https://www.holidify.com/images/bgImages/SALEM.jpg"
"SAMALKOT","Samalkot, Andhra Pradesh","ANDHRA-PRADESH",17.0531,82.1695,"https://www.holidify.com/images/bgImages/SAMALKOT.jpg"
"SAMBALPUR","Sambalpur, Odisha","ODISHA",21.47,83.97,"https://www.holidify.com/images/bgImages/SAMBALPUR.jpg"
"SANASAR","Sanasar, Jammu & Kashmir","JAMMU-AND-KASHMIR",33.1189161,75.2537397,"https://www.holidify.com/images/bgImages/SANASAR.jpg"
"SANCHI","Sanchi, Madhya Pradesh","MADHYA-PRADESH",23.482561,77.7406309,"https://www.holidify.com/images/bgImages/SANCHI.jpg"
"SANGLA","Sangla, Himachal Pradesh","HIMACHAL-PRADESH",31.4254859,78.2649956,"https://www.holidify.com/images/bgImages/SANGLA.jpg"
"SANTINIKETAN","Santiniketan, West Bengal","WEST-BENGAL",23.6835212,87.6803028,"https://www.holidify.com/images/bgImages/SANTINIKETAN.jpg"
"SAPUTARA","Saputara, Gujarat","GUJARAT",20.579722,73.746667,"https://www.holidify.com/images/bgImages/SAPUTARA.jpg"
"SARNATH","Sarnath, Uttar Pradesh","UTTAR-PRADESH",25.3811111,83.0213889,"https://www.holidify.com/images/bgImages/SARNATH.jpg"
"SATARA","Satara","MAHARASHTRA-GOA",17.6804639,74.018261,"https://www.holidify.com/images/bgImages/SATARA.jpg"
"SATNA","Satna","MADHYA-PRADESH",24.6005075,80.8322428,"https://www.holidify.com/images/bgImages/SATNA.jpg"
"SATTAL","Sattal, Uttarakhand","UTTARAKHAND",29.344309,79.5294318,"https://www.holidify.com/images/bgImages/SATTAL.jpg"
"SAVANDURGA","Savandurga, Karnataka","KARNATAKA",12.9205893,77.2944334,"https://www.holidify.com/images/bgImages/SAVANDURGA.jpg"
"SAWANTWADI","Sawantwadi, Maharashtra","MAHARASHTRA-GOA",15.9052627,73.8213213,"https://www.holidify.com/images/bgImages/SAWANTWADI.jpg"
"SECUNDERABAD","Secunderabad","TELANGANA",17.4399,78.4983,"https://www.holidify.com/images/bgImages/SECUNDERABAD.jpg"
"SERCHHIP","Serchhip, Mizoram","MIZORAM",23.310142,92.854642,"https://www.holidify.com/images/bgImages/SERCHHIP.jpg"
"SHANKARPUR","Shankarpur, West Bengal","WEST-BENGAL",21.639905,87.59062,"https://www.holidify.com/images/bgImages/SHANKARPUR.jpg"
"SHEKHAWATI","Shekhawati, Rajasthan","RAJASTHAN",27.6270903,75.1382796,"https://www.holidify.com/images/bgImages/SHEKHAWATI.jpg"
"SHILLONG","Shillong, Meghalaya","MEGHALAYA",25.5787726,91.8932535,"https://www.holidify.com/images/bgImages/SHILLONG.jpg"
"SHIMLA","Shimla, Himachal Pradesh","HIMACHAL-PRADESH",31.1046052,77.1734242,"https://www.holidify.com/images/bgImages/SHIMLA.jpg"
"SHIMOGA","Shimoga (Shivamogga), Karnataka","KARNATAKA",13.9299299,75.568101,"https://www.holidify.com/images/bgImages/SHIMOGA.jpg"
"SHIRDI","Shirdi, Maharashtra","MAHARASHTRA-GOA",19.7667,74.4833,"https://www.holidify.com/images/bgImages/SHIRDI.jpg"
"SHIVAGANGE","Shivagange, Karnataka","KARNATAKA",12.86668,77.37868,"https://www.holidify.com/images/bgImages/SHIVAGANGE.jpg"
"SHIVANASAMUNDRAM","Shivanasamundram Falls, Karnataka","KARNATAKA",12.294,77.168,"https://www.holidify.com/images/bgImages/SHIVANASAMUNDRAM.jpg"
"SHIVPURI","Shivpuri, Madhya Pradesh","MADHYA-PRADESH",25.43,77.65,"https://www.holidify.com/images/bgImages/SHIVPURI.jpg"
"SHOGHI","Shoghi, Himachal Pradesh","HIMACHAL-PRADESH",31.069,77.1366,"https://www.holidify.com/images/bgImages/SHOGHI.jpg"
"SHOJHA","Shoja, Himachal Pradesh","HIMACHAL-PRADESH",31.2563076,77.0874559,"https://www.holidify.com/images/bgImages/SHOJHA.jpg"
"SHRAVASTI","Shravasti","UTTAR-PRADESH",27.50769,82.02821,"https://www.holidify.com/images/bgImages/SHRAVASTI.jpg"
"SIBSAGAR","Sivasagar, Assam","ASSAM",26.9833,94.6333,"https://www.holidify.com/images/bgImages/SIBSAGAR.jpg"
"SIKAR","Sikar, Rajasthan","RAJASTHAN",27.6094,75.139911,"https://www.holidify.com/images/bgImages/SIKAR.jpg"
"SILCHAR","Silchar, Assam","ASSAM",24.82,92.8,"https://www.holidify.com/images/bgImages/SILCHAR.jpg"
"SILIGURI","Siliguri, West Bengal","WEST-BENGAL",26.7083818,88.4268741,"https://www.holidify.com/images/bgImages/SILIGURI.jpg"
"SILVASSA","Silvassa, Dadra & Nagar Haveli","UNION-TERRITORY",20.2655816,72.9992013,"https://www.holidify.com/images/bgImages/SILVASSA.jpg"
"SIRHIND","Sirhind","PUNJAB",0,0,"https://www.holidify.com/images/bgImages/SIRHIND.jpg"
"SOLAN","Solan, Himachal Pradesh","HIMACHAL-PRADESH",30.90396,77.096943,"https://www.holidify.com/images/bgImages/SOLAN.jpg"
"SOMNATH","Somnath, Gujarat","GUJARAT",20.9060022,70.3843721,"https://www.holidify.com/images/bgImages/SOMNATH.jpg"
"SONAMARG","Sonamarg, Jammu & Kashmir","JAMMU-AND-KASHMIR",34.3031616,75.293111,"https://www.holidify.com/images/bgImages/SONAMARG.jpg"
"SOUTH-SIKKIM","South Sikkim, Sikkim","SIKKIM",27.166996,88.3652122,"https://www.holidify.com/images/bgImages/SOUTH-SIKKIM.jpg"
"SPITI","Spiti Valley, Himachal Pradesh","HIMACHAL-PRADESH",32.246137,78.034916,"https://www.holidify.com/images/bgImages/SPITI.jpg"
"SRAVANABELAGOLA","Shravanabelagola, Karnataka","KARNATAKA",12.8563247,76.479854,"https://www.holidify.com/images/bgImages/SRAVANABELAGOLA.jpg"
"SRIKALAHASTI","Srikalahasti, Andhra Pradesh","ANDHRA-PRADESH",13.75269,79.7037579,"https://www.holidify.com/images/bgImages/SRIKALAHASTI.jpg"
"SRINAGAR","Srinagar, Jammu & Kashmir","JAMMU-AND-KASHMIR",34.0836581,74.7973681,"https://www.holidify.com/images/bgImages/SRINAGAR.jpg"
"SRINGERI","Sringeri, Karnataka","KARNATAKA",13.41872,75.25146,"https://www.holidify.com/images/bgImages/SRINGERI.jpg"
"SRIRANGAPATNA","Srirangapatna, Karnataka","KARNATAKA",12.4179565,76.6946872,"https://www.holidify.com/images/bgImages/SRIRANGAPATNA.jpg"
"SRISAILAM","Srisailam, Andhra Pradesh","ANDHRA-PRADESH",16.0732748,78.8687291,"https://www.holidify.com/images/bgImages/SRISAILAM.jpg"
"SUALKUCHI","Sualkuchi, Assam","ASSAM",26.1703301,91.570327,"https://www.holidify.com/images/bgImages/SUALKUCHI.jpg"
"SUNDARBAN-NATIONAL-PARK","Sundarbans, West Bengal","WEST-BENGAL",21.5640289,88.8910756,"https://www.holidify.com/images/bgImages/SUNDARBAN-NATIONAL-PARK.jpg"
"SURAT","Surat, Gujarat","GUJARAT",21.1702401,72.8310607,"https://www.holidify.com/images/bgImages/SURAT.jpg"
"SURYAMAL","Suryamal, Maharashtra","MAHARASHTRA-GOA",19.7577271,73.3469216,"https://www.holidify.com/images/bgImages/SURYAMAL.jpg"
"TADOBA","Tadoba National Park, Maharashtra","MAHARASHTRA-GOA",20.199057,79.414673,"https://www.holidify.com/images/bgImages/TADOBA.jpg"
"TALAKAD","Talakad, Karnataka","KARNATAKA",12.1946782,77.030539,"https://www.holidify.com/images/bgImages/TALAKAD.jpg"
"TALASARI-BEACH","Talasari Beach, Odisha","ODISHA",21.604969,87.466493,"https://www.holidify.com/images/bgImages/TALASARI-BEACH.jpg"
"TAMENGLONG","Tamenglong, Manipur","MANIPUR",24.9879342,93.495292,"https://www.holidify.com/images/bgImages/TAMENGLONG.jpg"
"TAMHINI-GHAT","Tamhini Ghat","MAHARASHTRA-GOA",18.4759,73.4592,"https://www.holidify.com/images/bgImages/TAMHINI-GHAT.jpg"
"TARAPITH","Tarapith, West Bengal","WEST-BENGAL",24.11,87.8,"https://www.holidify.com/images/bgImages/TARAPITH.jpg"
"TARKARLI","Tarkarli, Maharashtra","MAHARASHTRA-GOA",16.03588,73.481205,"https://www.holidify.com/images/bgImages/TARKARLI.jpg"
"TATTAPANI","Tattapani, Himachal Pradesh","HIMACHAL-PRADESH",31.247996,77.0849785,"https://www.holidify.com/images/bgImages/TATTAPANI.jpg"
"TAWANG","Tawang, Arunachal Pradesh","ARUNACHAL-PRADESH",27.578366,91.876341,"https://www.holidify.com/images/bgImages/TAWANG.jpg"
"TEHRI-GARHWAL","Tehri Garhwal, Uttarakhand","UTTARAKHAND",30.38,78.48,"https://www.holidify.com/images/bgImages/TEHRI-GARHWAL.jpg"
"THALASERRY-TELLICHERRY","Thalassery, Kerala","KERALA",11.7532878,75.4928777,"https://www.holidify.com/images/bgImages/THALASERRY-TELLICHERRY.jpg"
"THANE","Thane","MAHARASHTRA-GOA",19.2183,72.9781,"https://www.holidify.com/images/bgImages/THANE.jpg"
"THANJEVUR","Thanjavur, Tamil Nadu","TAMIL-NADU",10.7825,79.1313,"https://www.holidify.com/images/bgImages/THANJEVUR.jpg"
"THATTEKAD-BIRD-SANCTUARY","Thattekad Bird Sanctuary, Kerala","KERALA",10.1037,76.7027,"https://www.holidify.com/images/bgImages/THATTEKAD-BIRD-SANCTUARY.jpg"
"THEKKADY","Thekkady, Kerala","KERALA",9.6062413,77.1672255,"https://www.holidify.com/images/bgImages/THEKKADY.jpg"
"THENI","Theni","TAMIL-NADU",9.9329832,77.4701972,"https://www.holidify.com/images/bgImages/THENI.jpg"
"THENMALA","Thenmala, Kerala","KERALA",8.9632448,77.0650809,"https://www.holidify.com/images/bgImages/THENMALA.jpg"
"THIRUVANNAMALAI","Thiruvannamalai, Tamil Nadu","TAMIL-NADU",12.22,79.07,"https://www.holidify.com/images/bgImages/THIRUVANNAMALAI.jpg"
"THODUPUZHA","Thodupuzha","KERALA",9.72784,76.77418,"https://www.holidify.com/images/bgImages/THODUPUZHA.jpg"
"THOLPETTY","Tholpetty, Kerala","KERALA",11.9516338,76.0594972,"https://www.holidify.com/images/bgImages/THOLPETTY.jpg"
"THOUBAL","Thoubal, Manipur","MANIPUR",24.5435506,93.9674371,"https://www.holidify.com/images/bgImages/THOUBAL.jpg"
"THRISSUR","Thrissur, Kerala","KERALA",10.5276416,76.2144349,"https://www.holidify.com/images/bgImages/THRISSUR.jpg"
"TIKARPADA-WILDLIFE-SANCTUARY","Tikarpada Wildlife Sanctuary, Odisha","ODISHA",20.6131507,84.7915999,"https://www.holidify.com/images/bgImages/TIKARPADA-WILDLIFE-SANCTUARY.jpg"
"TINSUKIA","Tinsukia, Assam","ASSAM",27.489464,95.360144,"https://www.holidify.com/images/bgImages/TINSUKIA.jpg"
"TIRAP","Tirap, Arunachal Pradesh","ARUNACHAL-PRADESH",26.9942703,95.5407299,"https://www.holidify.com/images/bgImages/TIRAP.jpg"
"TIRTHAN-VALLEY","Tirthan Valley, Himachal Pradesh","HIMACHAL-PRADESH",31.6931167,77.5337836,"https://www.holidify.com/images/bgImages/TIRTHAN-VALLEY.jpg"
"TIRUCHI","Trichy, Tamil Nadu","TAMIL-NADU",10.7904833,78.7046725,"https://www.holidify.com/images/bgImages/TIRUCHI.jpg"
"TIRUCHIRAPPALLI","Tiruchirappalli","TAMIL-NADU",10.7904833,78.7046725,"https://www.holidify.com/images/bgImages/TIRUCHIRAPPALLI.jpg"
"TIRUNELVELI","Tirunelveli, Tamil Nadu","TAMIL-NADU",8.73,77.7,"https://www.holidify.com/images/bgImages/TIRUNELVELI.jpg"
"TIRUPATI","Tirupati, Andhra Pradesh","ANDHRA-PRADESH",13.6287557,79.4191795,"https://www.holidify.com/images/bgImages/TIRUPATI.jpg"
"TORANMAL","Toranmal, Maharashtra","MAHARASHTRA-GOA",21.8685434,74.4818698,"https://www.holidify.com/images/bgImages/TORANMAL.jpg"
"TRANQUEBAR","Tranquebar, Tamil Nadu","TAMIL-NADU",11.0290373,79.8506815,"https://www.holidify.com/images/bgImages/TRANQUEBAR.jpg"
"TRIVANDRUM","Trivandrum, Kerala","KERALA",8.4926958,77.1175788,"https://www.holidify.com/images/bgImages/TRIVANDRUM.jpg"
"TUENSANG","Tuensang, Nagaland","NAGALAND",26.2357422,94.8131863,"https://www.holidify.com/images/bgImages/TUENSANG.jpg"
"TUMKUR","Tumkur","KARNATAKA",13.34749,77.102173,"https://www.holidify.com/images/bgImages/TUMKUR.jpg"
"TUNGNATH","Tungnath, Uttarakhand","UTTARAKHAND",30.4867395,79.2211476,"https://www.holidify.com/images/bgImages/TUNGNATH.jpg"
"TURA","Tura, Meghalaya","MEGHALAYA",25.5140712,90.2032141,"https://www.holidify.com/images/bgImages/TURA.jpg"
"TUTICORIN","Tuticorin, Tamil Nadu","TAMIL-NADU",8.7641661,78.1348361,"https://www.holidify.com/images/bgImages/TUTICORIN.jpg"
"UDAIPUR","Udaipur, Rajasthan","RAJASTHAN",24.5712699,73.6915439,"https://www.holidify.com/images/bgImages/UDAIPUR.jpg"
"UDAYAGIRI-CAVES","Udayagiri Caves","MADHYA-PRADESH",23.5363,77.7722,"https://www.holidify.com/images/bgImages/UDAYAGIRI-CAVES.jpg"
"UDUPI","Udupi, Karnataka","KARNATAKA",13.33232,74.746048,"https://www.holidify.com/images/bgImages/UDUPI.jpg"
"UJJAIN","Ujjain, Madhya Pradesh","MADHYA-PRADESH",23.1793013,75.7849097,"https://www.holidify.com/images/bgImages/UJJAIN.jpg"
"UNAKOTI","Unakoti, Tripura","TRIPURA",24.3170831,92.0669027,"https://www.holidify.com/images/bgImages/UNAKOTI.jpg"
"UTTARKASHI","Uttarkashi, Uttarakhand","UTTARAKHAND",30.73,78.45,"https://www.holidify.com/images/bgImages/UTTARKASHI.jpg"
"VADODARA","Vadodara, Gujarat","GUJARAT",22.3071588,73.1812187,"https://www.holidify.com/images/bgImages/VADODARA.jpg"
"VAGAMON","Vagamon, Kerala","KERALA",9.6861814,76.9052294,"https://www.holidify.com/images/bgImages/VAGAMON.jpg"
"VAISHALI","Vaishali, Bihar","BIHAR",26.004444,85.080556,"https://www.holidify.com/images/bgImages/VAISHALI.jpg"
"VAISHNO-DEVI","Vaishno Devi, Jammu & Kashmir","JAMMU-AND-KASHMIR",33.0270719,74.9478608,"https://www.holidify.com/images/bgImages/VAISHNO-DEVI.jpg"
"VALLEY-OF-FLOWERS","Valley of Flowers, Uttarakhand","UTTARAKHAND",30.72804,79.605303,"https://www.holidify.com/images/bgImages/VALLEY-OF-FLOWERS.jpg"
"VARANASI","Varanasi, Uttar Pradesh","UTTAR-PRADESH",25.3176452,82.9739144,"https://www.holidify.com/images/bgImages/VARANASI.jpg"
"VARKALA","Varkala, Kerala","KERALA",8.7333,76.7167,"https://www.holidify.com/images/bgImages/VARKALA.jpg"
"VEDANTHANGAL","Vedanthangal, Tamil Nadu","TAMIL-NADU",12.5293336,79.8492812,"https://www.holidify.com/images/bgImages/VEDANTHANGAL.jpg"
"VELANKANNI","Velankanni, Tamil Nadu","TAMIL-NADU",10.6819262,79.8436796,"https://www.holidify.com/images/bgImages/VELANKANNI.jpg"
"VELLORE","Vellore","TAMIL-NADU",12.9165167,79.1324986,"https://www.holidify.com/images/bgImages/VELLORE.jpg"
"VIJAYAWADA","Vijayawada, Andhra Pradesh","ANDHRA-PRADESH",16.5061743,80.6480153,"https://www.holidify.com/images/bgImages/VIJAYAWADA.jpg"
"VIKRAMGAD","Vikramgad, Maharashtra","MAHARASHTRA-GOA",19.7973987,73.0958642,"https://www.holidify.com/images/bgImages/VIKRAMGAD.jpg"
"VINDHYACHAL","Vindhyachal, Uttar Pradesh","UTTAR-PRADESH",25.1577106,82.5036997,"https://www.holidify.com/images/bgImages/VINDHYACHAL.jpg"
"VISAKHAPATNAM","Visakhapatnam, Andhra Pradesh","ANDHRA-PRADESH",17.6868159,83.2184815,"https://www.holidify.com/images/bgImages/VISAKHAPATNAM.jpg"
"VIZIANAGARAM","Vizianagaram, Andhra Pradesh","ANDHRA-PRADESH",18.1066576,83.3955506,"https://www.holidify.com/images/bgImages/VIZIANAGARAM.jpg"
"VRINDAVAN","Vrindavan, Uttar Pradesh","UTTAR-PRADESH",27.58058,77.700607,"https://www.holidify.com/images/bgImages/VRINDAVAN.jpg"
"VYTHIRI","Vythiri, Kerala","KERALA",11.5516594,76.0402621,"https://www.holidify.com/images/bgImages/VYTHIRI.jpg"
"WARANGAL","Warangal, Andhra Pradesh","TELANGANA",18.000055,79.588167,"https://www.holidify.com/images/bgImages/WARANGAL.jpg"
"WAYANAD","Wayanad, Kerala","KERALA",11.7094457,76.095537,"https://www.holidify.com/images/bgImages/WAYANAD.jpg"
"WEST-SIKKIM","West Sikkim, Sikkim","SIKKIM",27.3197716,88.2400333,"https://www.holidify.com/images/bgImages/WEST-SIKKIM.jpg"
"WILLIAMNAGAR","Williamnagar, Meghalaya","MEGHALAYA",25.49546,90.61682,"https://www.holidify.com/images/bgImages/WILLIAMNAGAR.jpg"
"YAMUNOTRI","Yamunotri, Uttarakhand","UTTARAKHAND",30.9968657,78.4616526,"https://www.holidify.com/images/bgImages/YAMUNOTRI.jpg"
"YANAM","Yanam","TAMIL-NADU",16.73991,82.20363,"https://www.holidify.com/images/bgImages/YANAM.jpg"
"YELAGIRI","Yelagiri, Tamil Nadu","TAMIL-NADU",12.578104,78.640737,"https://www.holidify.com/images/bgImages/YELAGIRI.jpg"
"YERCAUD","Yercaud, Tamil Nadu","TAMIL-NADU",11.775251,78.2092576,"https://www.holidify.com/images/bgImages/YERCAUD.jpg"
"YINGKIONG","Yingkiong, Arunachal Pradesh","ARUNACHAL-PRADESH",28.6115606,95.0468584,"https://www.holidify.com/images/bgImages/YINGKIONG.jpg"
"YUPIA","Yupia, Arunachal Pradesh","ARUNACHAL-PRADESH",27.1692,93.7431,"https://www.holidify.com/images/bgImages/YUPIA.jpg"
"ZIRO","Ziro, Arunachal Pradesh","ARUNACHAL-PRADESH",27.546764,93.816774,"https://www.holidify.com/images/bgImages/ZIRO.jpg"
